,shop_name,STREET,LOCALITY,REGION,POSTAL_CODE
0,0109 Dessert And Cafe,"2190 McNicoll Ave, ","Scarborough, ","ON, ",M1V 0B3
1,1993530 Ontario Inc,"5150 Yonge St, ","North York, ","ON, ",M2N 6L8
2,2-4-1 Pizza,"2834 Victoria Park Ave, ","North York, ","ON, ",M2J 4A8
3,3 Kings Cafe,"2061 Lawrence Ave E, ","Scarborough, ","ON, ",M1R 2Z4
4,416 Coffee,"2-36 Wright St, ","St Catharines, ","ON, ",L2P 3J4
5,5 Elements Espresso,"131 Avenue Rd, ","Toronto, ","ON, ",M5R 2H7
6,521 Cafe & Bar,"521 Danforth Ave, ","Toronto, ","ON, ",M4K 1P7
7,608 Design,"2100 Bloor St W, ","Toronto, ","ON, ",M6S 5A5
8,650 Cafe Bistro - Downtown,"650 Bay St, ","Toronto, ","ON, ",M5G 1M8
9,709 Greet Coffee,"709 Danforth Ave, ","Toronto, ","ON, ",M4J 1L2
10,836 Pape Coffee Shop,"836 Pape Ave, ","East York, ","ON, ",M4K 3T6
11,A-Game Cafe,"797 Dundas St W Main, ","Toronto, ","ON, ",M6J 1V2
12,Abba Kyrillos Mari Mina,"150 John St, ","Toronto, ","ON, ",M5V 3E3
13,Abba Kyrillos Mari Mina,"700 University Av, ","Toronto, ","ON, ",M5G 1Z5
14,ABC Bakery & Coffee Shop,"3618 Victoria Park Ave, ","North York, ","ON, ",M2H 3B2
15,Ada Chocolate,"334 Dundas St W, ","Toronto, ","ON, ",M5T 1G5
16,Adam's Cafe,"1923 Eglinton Ave W, ","York, ","ON, ",M6E 2J7
17,Addis Cafe,"3200 Danforth Ave, ","Scarborough, ","ON, ",M1L 1B7
18,Affluent Minda,"200 University Ave Main, ","Toronto, ","ON, ",M5H 3C6
19,Afpetta Caffe,"207 Augusta Ave, ","Toronto, ","ON, ",M5T 2L4
20,Akia King Cafe,"387 Broadview Ave, ","Toronto, ","ON, ",M4K 2M7
21,Akia King Cafe,"387 Broadview Ave, ","Toronto, ","ON, ",M4K 2M7
22,Al-Jandoul Group Ltd.,"833 Westlock Rd, ","Mississauga, ","ON, ",L5C 1K7
23,Alcove Coffee,"34 Cawthra Ave, ","Toronto, ","ON, ",M6N 5B3
24,Allstarz Expresso Bar,"2249 Gerrard St E, ","Toronto, ","ON, ",M4E 2C9
25,Alumni Cafe,"2 Sussex Ave, ","Toronto, ","ON, ",M5S 1J5
26,Amani Earls,"3178 Dundas St W, ","Toronto, ","ON, ",M6P 2A3
27,Amazon Coffee Roasters Ltd,"10 Bondhead Pl, ","Toronto, ","ON, ",M9V 2L9
28,Ambiance Chocolat,"753 Queen St E, ","Toronto, ","ON, ",M4M 1H3
29,Amr Foods-Roody's Cafe,"1 Sunlight Park Rd, ","Toronto, ","ON, ",M4M 1B5
30,Ana-Sam Investments Inc,"4696 Yonge St, ","North York, ","ON, ",M2N 5M2
31,Anat Buna Coffee Shop,"175 Queen St E Main, ","Toronto, ","ON, ",M5A 1S2
32,Andy's,"Non, ","Non, ","ON, ",Non
33,Andy's Coffee Shop,"200 Consumers Rd, ","North York, ","ON, ",M2J 4R4
34,Anondo Resturant,"2891 Danforth Ave, ","Toronto, ","ON, ",M4C 1M3
35,Anthony's Cafe,"18 Wynford Dr, ","North York, ","ON, ",M3C 3S2
36,Antonio's Cafe,"Non, ","Non, ","ON, ",Non
37,Aramark Canada Ltd,"55 Harbord St, ","Toronto, ","ON, ",M5S 2W6
38,Archtop Cafe & Music Ltd,"2312 Bloor St W, ","Toronto, ","ON, ",M6S 1P2
39,Argila Cafe,"361 Yonge St, ","Toronto, ","ON, ",M5B 1S1
40,Aroma Espresso,"1090 Don Mills Rd, ","Toronto, ","ON, ",M3C 3R6
41,Aroma Espresso Bar,"250 King St E, ","Toronto, ","ON, ",M5A 1K1
42,Aroma Espresso Bar,"500 Bloor St W, ","Toronto, ","ON, ",M5S 1Y3
43,Aroma Espresso Bar,"220 Yonge St, ","Toronto, ","ON, ",M5B 2H1
44,Aroma Espresso Bar,"121 King St W, ","Toronto, ","ON, ",M5H 3T9
45,Aroma Espresso Bar,"535 Queen St W, ","Toronto, ","ON, ",M5V 2B4
46,Aroma Espresso Bar,"535 Queen St W, ","Toronto, ","ON, ",M5V 2B4
47,Aroma Espresso Bar,"2901 Bayview Ave, ","North York, ","ON, ",M2K 1E6
48,Aroma Espresso Bar,"2300 Yonge St, ","Toronto, ","ON, ",M4P 1E4
49,Aroma Espresso Bar,"3-85 Laird Dr, ","East York, ","ON, ",M4G 3T7
50,Aroma Espresso Bar,"2040 Avenue Rd, ","North York, ","ON, ",M5M 4A6
51,Aroma Espresso Bar,"430 King St W, ","Toronto, ","ON, ",M5V 1K3
52,Aroma Espresso Bar,"120 Lynn Williams St, ","Toronto, ","ON, ",M6K 3N6
53,Aroma Espresso Bar,"137 Bremner Blvd, ","Toronto, ","ON, ",M5J 3A7
54,Aroma Espresso Bar,"3791 Bathurst St, ","North York, ","ON, ",M3H 3N1
55,Aroma Espresso Bar,"540 College St, ","Toronto, ","ON, ",M6G 1A6
56,Aroma Espresso Bar,"3343 Yonge St, ","Toronto, ","ON, ",M4N 2M6
57,Aroma Espresso Bar,"1407 Yonge St, ","Toronto, ","ON, ",M4T 1Y7
58,Aroma Espresso Bar,"562 Bay St, ","Toronto, ","ON, ",M5G 0B3
59,Aroma Espresso Bar,"1110 Bay St, ","Toronto, ","ON, ",M5S 2Y1
60,Aroma Espresso Bar Canada Inc,"1800 Sheppard Ave E, ","North York, ","ON, ",M2J 5A7
61,Aroma Espresso Bar Waterpark Place,"88 Queens Quay W, ","Non, ","ON, ",M5J 0B2
62,Aroma Expresso,"1044F-1F Dundas St W, ","Toronto, ","ON, ",M5G 1Z3
63,Aroma Expresso Bar,"2300 Yonge St, ","Toronto, ","ON, ",M4P 1E4
64,Aroma Expresso Bar,"383 Spadina Rd, ","Toronto, ","ON, ",M5P 2W1
65,Aroma Expresso Bar,"600 University Ave, (Fcort), ","Toronto, ","ON, ",M5G 1X5
66,Aroma Expresso Bar Canada Inc,"25 The West Mall, ","Etobicoke, ","ON, ",M9C 1B8
67,Arte Gelato And Cafe,"946 Bloor St W, ","Toronto, ","ON, ",M6H 1L6
68,Artisano Bakery Cafe Ltd,"Non, ","Non, ","ON, ",Non
69,Artisano Bakery Café Ltd,"214 King St W, ","Toronto, ","ON, ",M5H 3S6
70,Athens Pastries & Cafe,"1681 Lake Shore Blvd E, ","Toronto, ","ON, ",M4L 3W6
71,Atrium Cafe,"267 Richmond St W, ","Toronto, ","ON, ",M5V 1W9
72,Aunt's Elsie Carribean Kitchen,"2689 Eglinton Ave E, ","Scarborough, ","ON, ",M1K 2S2
73,Ave Maria Latin Cafe,"631 Bloor St W, ","Toronto, ","ON, ",M6G 1K8
74,Avellino Social Club,"3041 Islington Ave, ","North York, ","ON, ",M9L 2K9
75,Avenue Diner,"222 Davenport Rd, ","Toronto, ","ON, ",M5R 1J6
76,Average Joe's Cafe,"161 Baldwin St, ","Toronto, ","ON, ",M5T 1L9
77,Awash Cafe,"1230 Danforth Ave, ","Toronto, ","ON, ",M4J 1M6
78,Aziza Cafe,"962 College St, ","Toronto, ","ON, ",M6H 1A5
79,B Espresso Bar,"111 Queen St E, ","Toronto, ","ON, ",M5C 1S2
80,B Expresso Bar,"273 Bloor St W, ","Toronto, ","ON, ",M5S 1W2
81,Backyards Coffee And Community,"2579 Credit Valley Rd, ","Mississauga, ","ON, ",L5M 4K7
82,Bagel Time Montreal Style,"582 Danforth Ave, ","Toronto, ","ON, ",M4K 1R1
83,Bagelstix,"5 King St E, ","Toronto, ","ON, ",M5C 3C6
84,Baker's Dozen Donuts,"2733 Danforth Ave, ","Toronto, ","ON, ",M4C 1L8
85,Baker's Dozen Donuts,"751 King St W, ","Toronto, ","ON, ",M5V 1N4
86,Baker's Dozen Donuts,"1044 Finch Ave W, ","North York, ","ON, ",M3J 2E2
87,Baker's Dozen Donuts,"3200 Dufferin St, ","North York, ","ON, ",M6A 3B2
88,Baker's Dozen Donuts Shop 125,"3157 Dundas St W, ","Toronto, ","ON, ",M6P 2A2
89,Bakes & Goods,"2523 Yonge St, ","Toronto, ","ON, ",M4P 2H9
90,Baltica Café,"620 Wilson Ave, ","North York, ","ON, ",M3K 1Z3
91,Balzacs Coffee,"789 Yonge St, ","Toronto, ","ON, ",M4W 2G8
92,Balzacs Coffee,"122 Bond St, ","Toronto, ","ON, ",M5B 1X8
93,Balzac's Coffee Ltd,"20 York St, ","Toronto, ","ON, ",M5J 2Z1
94,Balzacs Coffee Ltd,"10 Market St, ","Toronto, ","ON, ",M5E 1M6
95,Balzac's Powerhouse,"31 Powerhouse St, ","Toronto, ","ON, ",M6H 4K7
96,Bar Ape Gelato,"283 Rushton Rd, ","Toronto, ","ON, ",M6C 2X6
97,Bar Curva Nord,"772 Wilson Ave, ","North York, ","ON, ",M3K 1E2
98,Bar Moderno,"868A The Queensway, ","Etobicoke, ","ON, ",M8Z 1N7
99,Baretto Caffe,"1262 Don Mills Rd, ","North York, ","ON, ",M3B 2W7
100,Baroli Caffe,"220 Yonge St, ","Toronto, ","ON, ",M5B 2H1
101,Bayview Cake & Pastry,"4-10066 Bayview Ave, ","Richmond Hill, ","ON, ",L4C 0W5
102,BB Cafe & Pastry Boutique,"6095 Yonge St, ","North York, ","ON, ",M2M 3W2
103,BD APD Inc,"200 Wellington W, ","Toronto, ","ON, ",M5V 3C7
104,Beaver Cafe,"1192 Queen St W, ","Toronto, ","ON, ",M6J 1J6
105,Beaver Foods-Roasters,"250 Bloor St E, ","Toronto, ","ON, ",M4W 1E6
106,Behesht Café,"10165 Yonge St, ","Richmond Hill, ","ON, ",L4C 1T5
107,Belfountain General Store,"758 Bush St, ","Belfountain, ","ON, ",L7K 0E5
108,Bellair Coffee Plus,"1240 Bay St, ","Toronto, ","ON, ",M5R 2A7
109,Bellais Coffee Plus,"1240 Bay St, ","Toronto, ","ON, ",M5R 2A7
110,Bella's Cafe And Pastry,"460 Rogers Rd, ","York, ","ON, ",M6M 1A9
111,Bellwoods Coffee And Gelato,"1006 Dundas St W, ","Toronto, ","ON, ",M6J 1W6
112,Bennito,"1710 Victoria Park Ave, ","North York, ","ON, ",M1R 1R6
113,Bernate Foods Ltd,"148 Beaconsfield Ave, ","Toronto, ","ON, ",M6J 3J6
114,Best Coffee,"20 Dufflaw Rd, ","North York, ","ON, ",M6A 2W1
115,Bicerin Coffee Syndigrow Incorporation,"37 Baldwin St, ","Toronto, ","ON, ",M5T 1L1
116,Big Guy's Little Coffee Shop,"2861 Lake Shore Blvd W, ","Etobicoke, ","ON, ",M8V 1H8
117,Bill V Coffee Shop,"1300 Yonge St, ","Toronto, ","ON, ",M4T 1X3
118,Bill-Maur Coffee Shop,"Ontario Food Terminal, ","Etobicoke, ","ON, ",M8Y 1H8
119,Birchmount Cafe,"462 Birchmount Rd, ","Scarborough, ","ON, ",M1K 1N8
120,Bisogno Espresso Bar,"61 Sherbourne St, ","Toronto, ","ON, ",M5A 2P8
121,Bite Me Foods,"31 O'Hara Ave, ","Toronto, ","ON, ",M6K 2P9
122,Blablabla Coffee,"741 Queen St E, ","Toronto, ","ON, ",M4M 1H3
123,Black Bear Espresso,"25C Carlton St, ","Toronto, ","ON, ",M5B 1L4
124,Black Camel,"4 Crescent Rd, ","Toronto, ","ON, ",M4W 1S9
125,Black Cat Espresso Bar,"1104 College St, ","Toronto, ","ON, ",M6H 1B3
126,Black Goat Cafe,"3261 Lake Shore Blvd W, ","Etobicoke, ","ON, ",M8V 1M2
127,Blue Dogg Ltd,"437 Jarvis St, ","Toronto, ","ON, ",M4Y 2H1
128,Blue Moon Restaurant & Cafe,"1054 Lillian St, ","Toronto, ","ON, ",M2M 3G4
129,Bluestone Lane Downtown Coffee Shop,"37 King St. East, ","Toronto, ","ON, ",M5C 1E9
130,Bluestone Lane Queen Station Coffee Shop,"2 Queen Street East, ","Toronto, ","ON, ",M5C 3G5
131,Bob Coffee Bar,"440 Christie St, ","Toronto, ","ON, ",M6G 3C6
132,Boba Bubble Tea,"1918A Queen St E, ","Toronto, ","ON, ",M4L 1H5
133,Bobaboy,"357 Bremner Blvd, ","Toronto, ","ON, ",M5V 3V4
134,Bobo Tea & Juice,"62 Fort York Blvd, ","Toronto, ","ON, ",M5V 4A6
135,Bond Coffee Shop,"113 Bond St, ","Toronto, ","ON, ",M5B 1Y2
136,Bonissimo Caffe,"130 Bloor St W, ","Toronto, ","ON, ",M5S 1N5
137,Botafogo Bar Cafe,"1631 Dundas St W, ","Toronto, ","ON, ",M6K 1V2
138,Boxcar Social,"1208 Yonge St, ","Toronto, ","ON, ",M4T 1W1
139,Brant Street Cafe,"425 Adelaide St W, ","Toronto, ","ON, ",M5V 3C1
140,Bread & Roses Bakery Cafe,"2901 Bayview Ave, ","North York, ","ON, ",M2K 1E6
141,Bread and Roses Bakery Cafe,"2232 Bloor St W, ","Toronto, ","ON, ",M6S 1N6
142,Brewed 2 Perfection,"Non, ","Non, ","ON, ",Non
143,Brewed 2 Perfection,"2051 Williams Pky E, ","Brampton, ","ON, ",L6S 5T3
144,Brewed 2 Perfection,"Non, ","Non, ","ON, ",Non
145,Bridgehead Coffeehouses,"Non, ","Non, ","ON, ",Non
146,Bridgehead Coffeehouses Bridgehead Kitchen,"Non, ","Non, ","ON, ",Non
147,Broadview Espresso,"Non, ","TORONTO, ","ON, ",Non
148,Bruegger's-mmmuffins Canada,"220-25 King St W, ","York, ","ON, ",M9N 1K8
149,Bruegger's-mmmuffins Canada,"116-3300 Bloor St W, ","Etobicoke, ","ON, ",M8X 2W8
150,Bruegger's-mmmuffins Canada,"136-40 King St W, ","Toronto, ","ON, ",M5H 3Y2
151,Brun&Fer Coffee,"559 Parliament St, ","Toronto, ","ON, ",M4X 1P7
152,Buddy Hong Kong Cafe,"2950 Birchmount Rd, ","Scarborough, ","ON, ",M1W 3G5
153,Bud's Coffee Inc,"1966 1/2 QueenE, ","Toronto, ","ON, ",M4L 1H8
154,Bull Dog Coffee,"86 Gerrard St E, ","Toronto, ","ON, ",M5B 2J1
155,Buna,"1176 Queen St W, ","Toronto, ","ON, ",M6J 1J5
156,Bunabet Coffee,"2422 Danforth Ave, ","Toronto, ","ON, ",M4C 1K9
157,Buro 53,"53 Bloor St E, ","Toronto, ","ON, ",M4W 1A9
158,Buzz Stop Inc,"4 Crescent Rd, ","Toronto, ","ON, ",M4W 1S9
159,By The Way,"400 Bloor St W, ","Toronto, ","ON, ",M5S 1X5
160,Cafe 1808 Canada,"220 Norfinch Dr, ","Toronto, ","ON, ",M3N 1Y4
161,Cafe 2Day,"1169 Bloor St W, ","Toronto, ","ON, ",M6H 1M9
162,Cafe 512,"1376 St Clair Ave W, ","Toronto, ","ON, ",M6E 1C6
163,Cafe Arbia,"113 Bond St, ","Toronto, ","ON, ",M5B 1Y2
164,Cafe Augusta,"Non, ","Non, ","ON, ",Non
165,Cafe Bene,"5519 Yonge St, ","North York, ","ON, ",M2N 5S3
166,Cafe Bennie,"809 Cobbler Cres, ","North York, ","ON, ",M3N 2Y6
167,Cafe Booboo,"533 Richmond St W, ","Toronto, ","ON, ",M5V 3Y1
168,Café Boulud,"60 Yorkville Ave, ","Toronto, ","ON, ",M4W 0A4
169,"Café chez Hélène - Organic Coffee, Music and More","Non, ","Non, ","ON, ",Non
170,"Café chez Hélène-Organic Coffee, Music and More","1437 Kingston Rd, ","Scarborough, ","ON, ",M1N 1R4
171,Café Co-Co,"2680 Lawrence Ave E, ","Scarborough, ","ON, ",M1P 4Y4
172,Cafe Cocoro,"1989 Danforth Ave, ","Toronto, ","ON, ",M4C 1J7
173,Café Con Leche,"1571 Dupont St, ","Toronto, ","ON, ",M6P 3S5
174,Cafe Diplomatico,"594 College St, ","Toronto, ","ON, ",M6G 1B3
175,Cafe Durval,"4 Greenwood Ave, ","Toronto, ","ON, ",M4L 2P4
176,Café Expresso Inc,"790 Bay St, ","Toronto, ","ON, ",M5G 1N8
177,Cafe Frappe,"519 Danforth Ave, ","Toronto, ","ON, ",M4K 1P5
178,Cafe Herois DO Mar,"1516 Dundas St W, ","Toronto, ","ON, ",M6K 1T5
179,Cafe Iris,"1240 Bay St, ","Toronto, ","ON, ",M5R 2A7
180,Café Ju Pen,"1792 Eglinton Ave W, ","York, ","ON, ",M6E 2H6
181,Cafe Lac Do,"92 Ossington Ave, ","Toronto, ","ON, ",M6J 2Z4
182,Cafe Locale,"1365 Wilson Ave, ","North York, ","ON, ",M3M 1H7
183,Cafe Louise BakeHouse,"27-15 Connie Cres, ","Vaughan, ","ON, ",L4K 1L3
184,Cafe Luso Churrasqueira,"1319 Dundas St W, ","Toronto, ","ON, ",M6J 1X8
185,Cafe M,"672 Yonge St, ","Toronto, ","ON, ",M4Y 2A6
186,Café Manning,"559 College St, ","Toronto, ","ON, ",M6G 1A9
187,Cafe Mirage,"26 William Kitchen Rd, ","Toronto, ","ON, ",M1P 5B7
188,Café Moda,"555 Richmond St W, ","Toronto, ","ON, ",M5V 3B1
189,Café Moi,"1200 Bay St, ","Toronto, ","ON, ",M5R 2A5
190,Cafe Mondiale,"1947 Sheppard Ave W, ","North York, ","ON, ",M3L 1Y8
191,Cafe Mystique,"130 Industry St, ","North York, ","ON, ",M6M 5G3
192,Café Neon,"241 Wallace Ave, ","Toronto, ","ON, ",M6H 1V5
193,Cafe Neon,"1024 Queen St W, ","Toronto, ","ON, ",M6J 1H6
194,Cafe O,"7027, rue Durocher, ","Montréal, ","QC, ",H3N 1Z7
195,Café Olya,"540 Parliament St, ","Toronto, ","ON, ",M4X 1P6
196,Cafe On Ingram,"2221 Keele St, ","North York, ","ON, ",M6M 3Z5
197,Cafe On The Go,"300 Yonge St, ","Toronto, ","ON, ",M5P 1O8
198,Cafe On The Go,"151 Yonge St, ","Toronto, ","ON, ",M5C 2W7
199,Cafe On The Square,"100 Queen St W, ","Toronto, ","ON, ",M5H 2N1
200,Cafe Oro,"21 Dundas Sq, ","Toronto, ","ON, ",M5B 1B7
201,Cafe Ossy's Bakery,"Non, ","Non, ","ON, ",Non
202,Cafe Palace,"2375 Steeles Ave W, ","North York, ","ON, ",M3J 3A8
203,Cafe Piccolino,"1201 Bloor St W, ","Toronto, ","ON, ",M6H 1N4
204,Cafe Place,"99 Hillsdale Ave E, ","Toronto, ","ON, ",M4S 1T4
205,Café Princess,"5590 Yonge St, ","North York, ","ON, ",M2N 5S2
206,Cafe Soul,"23 Drewry Ave, ","North York, ","ON, ",M2M 1C9
207,Cafe Spider's Corner,"351 Marlee Ave, ","North York, ","ON, ",M6B 3H9
208,Café Sport Bar Europe,"376 Browns Line, ","Etobicoke, ","ON, ",M8W 3T7
209,Cafe Supreme,"123 Queen St W, ","Toronto, ","ON, ",M5H 3M9
210,Cafe Supreme,"556 Church St, ","Toronto, ","ON, ",M4Y 2E3
211,Cafe Taste,"Non, ","Toronto, ","ON, ",Non
212,Café Waldhaus,"Non, ","Non, ","ON, ",Non
213,Cafe Xpress,"150 Consumers Rd, ","North York, ","ON, ",M2J 1P9
214,Cafe Zavida,"382 Yonge St, ","Toronto, ","ON, ",M5B 1S8
215,Caffe Artigiano,"101-67 Yonge St, ","Toronto, ","ON, ",M5E 1J8
216,Caffe Demetre,"2962 Bloor St W, ","Etobicoke, ","ON, ",M8X 1B7
217,Caffe Di Portici,"101A-6 Scollard St, ","Toronto, ","ON, ",M5R 1E9
218,Caffe Romano,"349 Oakwood Ave, ","York, ","ON, ",M6E 2W1
219,Caffeine - Toronto's Cafe,"1448 Lawrence Ave E, ","North York, ","ON, ",M4A 2S8
220,Cake House Bakery,"2300 Lawrence Ave E, ","Scarborough, ","ON, ",M1P 2R2
221,Cakeview Bakery & Cafe,"4188 Finch Ave E, ","Scarborough, ","ON, ",M1S 4T6
222,Cakewood Bakery And Cafe,"1571 Sandhurst Cir, ","Toronto, ","ON, ",M1V 1V2
223,Cameron's Coffee,"2 Matilda St, ","Toronto, ","ON, ",M4M 1L9
224,Canada Coffee Svc,"14 Terrydale Dr, ","Toronto, ","ON, ",M3H 5M6
225,Canephora Cafe & Bakery,"222 Finch Ave W, ","North York, ","ON, ",M2R 1M6
226,Cappucci Caffe Inc,"264 Silverado Trail, ","Woodbridge, ","ON, ",L4H 1Z6
227,Capriccio Café,"Non, ","Non, ","ON, ",Non
228,Carole's Cheesecake Cafe Yorkv,"114 Cumberland St, ","Toronto, ","ON, ",M5R 1A6
229,Casa del Café,"108-70 Turntable Cres, ","Toronto, ","ON, ",M6H 4K9
230,Cavallino Cafe Sports Bar,"930 The Queensway, ","Etobicoke, ","ON, ",M8Z 1P4
231,Ce L'Espresso Inc,"1705 Weston Rd, ","York, ","ON, ",M9N 1V5
232,Centre Cafe,"5 Park Home Ave, ","North York, ","ON, ",M2N 6L4
233,Chatime Toronto,"132 Dundas St W, ","Toronto, ","ON, ",M5G 1C3
234,Chatter,"51 Underhill Dr, ","North York, ","ON, ",M3A 2J8
235,Cherry Bomb Coffee,"79 Roncesvalles Ave, ","Toronto, ","ON, ",M6R 2K6
236,Chocolate Heaven Cafe Company,"974 Danforth Ave, ","Toronto, ","ON, ",M4J 1L9
237,Chris Coffee Shop,"1 Valleybrook Dr, ","North York, ","ON, ",M3B 2S7
238,CI Gusta Frozen Yogurt Cafe,"555 Essa Rd, ","Barrie, ","ON, ",L4N 6A9
239,City Cafe,"2375 Steeles Ave W, ","North York, ","ON, ",M3J 3A8
240,Clark Food Svc,"7-11 Holland Dr, ","Bolton, ","ON, ",L7E 1G7
241,Cleo's Café,"1754 Victoria Park Ave, ","North York, ","ON, ",M1R 1R4
242,CLOSED - Second Cup Coffee Co.,"163 King Street East, ","Toronto, ","ON, ",M5A 1J4
243,CLOSED - Second Cup Coffee Co. featuring Pinkberry Frozen Yogurt,"518 Eglinton Ave. West, ","Toronto, ","ON, ",M5N 1A5
244,CLOSED - Second Cup Coffee Co. featuring Pinkberry Frozen Yogurt,"1703 Avenue Rd, ","North York, ","ON, ",M5M 3Y3
245,Clove Apple Café,"1405 Queen St W, ","Toronto, ","ON, ",M6K 1M3
246,Club Coffee L P,"55 Carrier Dr, ","Etobicoke, ","ON, ",M9W 5V9
247,Club Coffee L.p.,"101 Claireville Dr, ","Etobicoke, ","ON, ",M9W 6K9
248,Clube Da Zona,"1135A College St, ","Toronto, ","ON, ",M6H 1B5
249,Cocoa Berry Cupcakes & Coffee,"Non, ","Non, ","ON, ",Non
250,Cocoberry Cafe Dixie,"2280 Dixie Road, ","Mississauga, ","ON, ",L4Y 1Z4
251,Coffee & All That Jazz,"72 Howard Park Ave, ","Toronto, ","ON, ",M6R 1V6
252,Coffee & Deli Delight,"2180 Yonge St, ","Toronto, ","ON, ",M4S 2B9
253,Coffee And Clothing,"348 Pape Ave, ","Toronto, ","ON, ",M4M 2X1
254,Coffee Court,"60 Queen St W, ","Toronto, ","ON, ",M5H 2M3
255,Coffee Crate,"2111 Dundas St W, ","Toronto, ","ON, ",M6R 1X1
256,Coffee Culture,"2060 Ellesmere Rd, ","Toronto, ","ON, ",M1H 2V6
257,Coffee Dome & Donuts,"2223 Kingston Rd, ","Scarborough, ","ON, ",M1N 1T8
258,Coffee Galore,"Non, ","TORONTO, ","ON, ",Non
259,Coffee Galore,"11-100 The East Mall, ","Etobicoke, ","ON, ",M8Z 5X2
260,Coffee Here,"3430 Finch Ave E, ","Scarborough, ","ON, ",M1W 2R5
261,Coffee Life,"676 Finch Ave E, ","Toronto, ","ON, ",M2K 2E6
262,Coffee On The Go,"141 Bay St, ","Toronto, ","ON, ",M5J 1J5
263,Coffee Prime,"4660 Kingston Rd, ","Scarborough, ","ON, ",M1E 2P9
264,Coffee Public,"800 Bay St, ","Toronto, ","ON, ",M5S 3A9
265,Coffee Supreme Bistro,"40 University Ave, ","Toronto, ","ON, ",M5J 1T1
266,Coffee Supreme Bistro,"40 University Avenue, ","Toronto, ","ON, ",M5J 1T1
267,Coffee Time,"2424 Bloor St W, ","Toronto, ","ON, ",M6S 1P9
268,Coffee Time,"1046 Pape Ave, ","East York, ","ON, ",M4K 3W2
269,Coffee Time,"3622 Dufferin St, ","North York, ","ON, ",M3K 1N7
270,Coffee Time,"28408 48th Hwy, ","Toronto, ","ON, ",L0E 1N0
271,Coffee Time,"1594 The Queensway, ","Etobicoke, ","ON, ",M8Z 1V1
272,Coffee Time,"2146 Danforth Ave, ","Toronto, ","ON, ",M4C 1J9
273,Coffee Time,"1005 Lansdowne Ave, ","Toronto, ","ON, ",M6H 4E9
274,Coffee Time,"1575 Lawrence Ave W, ","North York, ","ON, ",M6L 1C3
275,Coffee Time,"1647 Queen St W, ","Toronto, ","ON, ",M6R 1A9
276,Coffee Time,"1287 Bloor St W, ","Toronto, ","ON, ",M6H 1N7
277,Coffee Time,"8540 Keele St, ","Concord, ","ON, ",L4K 2N2
278,Coffee Time,"839 Queen St W, ","Toronto, ","ON, ",M6J 1G4
279,Coffee Time,"3671 Bathurst St, ","North York, ","ON, ",M6A 2E6
280,Coffee Time,"600 Bloor St W, ","Toronto, ","ON, ",M6G 1K4
281,Coffee Time,"2615 Eglinton Ave W, ","York, ","ON, ",M6M 1T3
282,Coffee Time,"5-1620 Birchmount Rd, ","Scarborough, ","ON, ",M1P 2H6
283,Coffee Time,"1471 Eglinton Ave W, ","York, ","ON, ",M6E 2G6
284,Coffee Time,"3701 Chesswood Dr, ","North York, ","ON, ",M3J 2P6
285,Coffee Time,"2195 Midland Ave, ","Toronto, ","ON, ",M1P 3E7
286,Coffee Time,"2788 Lake Shore Blvd W, ","Etobicoke, ","ON, ",M8V 1H5
287,Coffee Time,"1402 Queen St W, ","Toronto, ","ON, ",M6K 1L9
288,Coffee Time,"4-3003 Danforth Ave, ","Toronto, ","ON, ",M4C 1M9
289,Coffee Time,"1213 Bayview Ave, ","Toronto, ","ON, ",M4G 2Z8
290,Coffee Time,"222 The Esplanade, ","Toronto, ","ON, ",M5A 4M8
291,Coffee Time,"1577 Danforth Ave, ","Toronto, ","ON, ",M4C 1H7
292,Coffee Time,"1008 Wilson Ave, ","North York, ","ON, ",M3K 1G6
293,Coffee Time,"2688 Dundas St W, ","Toronto, ","ON, ",M6P 1Y2
294,Coffee Time,"142 Parliament St, ","Toronto, ","ON, ",M5A 2Z1
295,Coffee Time,"1448 Lawrence Ave E, ","North York, ","ON, ",M4A 2V6
296,Coffee Time,"2788 Lakeshore Blvd W, ","Toronto, ","ON, ",M5V 1H5
297,Coffee Time,"1263 Weston Rd, ","Toronto, ","ON, ",M6M 4P9
298,Coffee Time,"871 Kipling Ave, ","Etobicoke, ","ON, ",M8Z 5H1
299,Coffee Time,"45 Overlea Blvd, ","East York, ","ON, ",M4H 1C3
300,Coffee Time,"731 Broadview Ave, ","Toronto, ","ON, ",M4K 2P6
301,Coffee Time Donuts,"1090 Don Mills Rd, ","North York, ","ON, ",M3C 3R6
302,Coffee Time Donuts,"599 Yonge St, ","Toronto, ","ON, ",M4Y 1Z4
303,Coffee Time Donuts,"1923 Eglinton Ave E, ","Scarborough, ","ON, ",M1L 2M3
304,Coffee Time Donuts,"2310 Sheppard Ave W, ","North York, ","ON, ",M9M 1M2
305,Coffee Time Donuts,"1327 Martin Grove Rd, ","Etobicoke, ","ON, ",M9W 4X5
306,Coffee Time Donuts,"141 Adelaide St W, ","Toronto, ","ON, ",M5H 3L5
307,Coffee Time Donuts,"1620 Albion Rd, ","Etobicoke, ","ON, ",M9V 4B4
308,Coffee Time Donuts,"235 Bloor St E, ","Toronto, ","ON, ",M4W 3Y3
309,Coffee Time Donuts,"205 Woodbine Ave, ","Toronto, ","ON, ",M4L 3P3
310,Coffee Time Donuts,"33 University Ave, ","Toronto, ","ON, ",M5J 2S7
311,Coffee Time Donuts,"2424 Bloor St W, ","Toronto, ","ON, ",M6S 1P9
312,Coffee Time Donuts,"5926 Yonge St, ","North York, ","ON, ",M2M 3V9
313,Coffee Time Donuts,"5926 Yonge St, ","North York, ","ON, ",M2M 3V9
314,Coffee Time Donuts,"2904 Sheppard Ave E, ","Scarborough, ","ON, ",M1T 3J4
315,Coffee Time Donuts,"1840 Albion Rd, ","Etobicoke, ","ON, ",M9W 5T2
316,Coffee Time Donuts,"339 College St, ","Toronto, ","ON, ",M5T 1S2
317,Coffee Time Donuts,"3575 Dundas St W, ","York, ","ON, ",M6S 2S7
318,Coffee Time Donuts Inc,"77 Progress Ave, ","Scarborough, ","ON, ",M1P 2Y7
319,Coffeesofjamaica,"60 Banington Cres, ","Brampton, ","ON, ",L7A 1G3
320,Comfort Zone Cafe,"20 Norelco Dr, ","Toronto, ","ON, ",M9L 2X6
321,Compass Group Canada,"76 Adelaide St W, ","Toronto, ","ON, ",M5H 1P6
322,Coo Café,"1049 Bloor St W, ","Toronto, ","ON, ",M6H 1M4
323,Cookiegrams,"7-81 Brisbane Rd, ","North York, ","ON, ",M3J 2K3
324,Cool Hand Of A Girl Cafe,"2804 Dundas St W, ","Toronto, ","ON, ",M6P 1Y5
325,Coquette Bakery and Café,"Non, ","Non, ","ON, ",Non
326,Coquine L'Express Cafe Inc,"4 Manor E, ","Toronto, ","ON, ",M4S 1P8
327,Core Works Pilates,"1109 Dundas St E, ","Toronto, ","ON, ",M4M 1R9
328,Corner Cafe Puntopasta,"Non, ","Toronto, ","ON, ",M4P 1Z8
329,Country Style,"2387 Kingston Rd, ","Toronto, ","ON, ",M1N 1V1
330,Country Style,"10 St Mary St, ","Toronto, ","ON, ",M4Y 1P9
331,Country Style,"524 Wilson Heights Blvd, ","North York, ","ON, ",M3H 2V6
332,Country Style,"1708 Queen St E, ","Toronto, ","ON, ",M4L 1G7
333,Country Style,"590 Keele St, ","Toronto, ","ON, ",M6N 3E2
334,Country Style,"6255 Bathurst St, ","North York, ","ON, ",M2R 2A5
335,Country Style,"705 Queen St E, ","Toronto, ","ON, ",M4M 1G6
336,Country Style,"372 Yonge Street, ","Toronto, ","ON, ",M5B 1S6
337,Country Style,"2881 Keele St, ","Toronto, ","ON, ",M3M 2G9
338,Country Style,"960 Warden Ave, ","Scarborough, ","ON, ",M1L 4C9
339,Country Style,"2534 Bayview Ave, ","Toronto, ","ON, ",M2L 1A9
340,Country Style,"20 Bloor St E, ","Toronto, ","ON, ",M4W 1A8
341,Country Style,"1974 Avenue Rd, ","Toronto, ","ON, ",M5M 4A1
342,Country Style,"47 Sheppard Ave E, ","Toronto, ","ON, ",M2N 5X5
343,Country Style,"799 York Mills Rd, ","North York, ","ON, ",M3B 1X6
344,Country Style,"272 Dupont Street, ","Toronto, ","ON, ",M5R 1V7
345,Country Style,"2097 Weston Rd., ","Toronto, ","ON, ",M9N 1X7
346,Country Style,"21 St. Clair Ave. E, ","Toronto, ","ON, ",M4T 1L9
347,Country Style,"793 Wilson Ave, ","North York, ","ON, ",M3K 1E4
348,Country Style,"38 Spadina Ave., ","Toronto, ","ON, ",M5V 2H8
349,Country Style,"213 Wellesley St E, ","Toronto, ","ON, ",M4X 1G1
350,Country Style,"181 Bay St, ","Toronto, ","ON, ",M5J 2T3
351,Country Style,"2929 Danforth Ave, ","Toronto, ","ON, ",M4C 1M4
352,Country Style,"2444 Finch Ave W, ","North York, ","ON, ",M9M 2E9
353,Country Style,"1880 Eglinton Ave E, ","Scarborough, ","ON, ",M1L 2L1
354,Country Style,"1650 Derry Rd E, ","Mississauga, ","ON, ",L5S 1X8
355,Country Style,"989 Ward St, ","Bridgenorth, ","ON, ",K0L 1H0
356,Country Style,"2185 Gerrard St E, ","Toronto, ","ON, ",M4E 2C6
357,Country Style Donuts,"5955 Leslie St, ","North York, ","ON, ",M2H 1J8
358,Country Style Donuts,"Non, ","Non, ","ON, ",Non
359,Country Style Donuts,"300 Borough Dr, ","Scarborough, ","ON, ",M1P 4P5
360,Country Style Donuts,"300 Borough Dr, ","Scarborough, ","ON, ",M1P 4P5
361,Country Style Petroplus,"929 Queen St E, ","Toronto, ","ON, ",M4M 1J6
362,Country Style Petroplus,"929 Queen St E, ","Toronto, ","ON, ",M4M 1J6
363,Crafted Coffee Corp,"117 Ossington Ave, ","Toronto, ","ON, ",M6J 2Z2
364,Creeds Coffee Bar,"390 Dupont St, ","Toronto, ","ON, ",M5R 1V9
365,Creme De La Creme Cafe,"2991 Bloor St W, ","Etobicoke, ","ON, ",M8X 1C1
366,Crepe & Co European Cafe,"1167 Queen St W, ","Toronto, ","ON, ",M6J 1J6
367,Croissant Tree,"111 Peter St, ","Toronto, ","ON, ",M5V 2H1
368,Crosstown Coffee Bar,"187 Highbourne Rd, ","Toronto, ","ON, ",M5P 2J8
369,Crosstown Coffee Bar,"187 Highbourne Rd, ","Toronto, ","ON, ",M5P 2J8
370,CSI Coffee Pub,"720 Bathurst St, ","Toronto, ","ON, ",M5S 2R4
371,Cupcake Cafe fax,"Non, ","Non, ","ON, ",Non
372,Cybercino Cafe,"900 Dufferin St, ","Toronto, ","ON, ",M5R 3G8
373,Daango Sweets,"202 Baldwin St, ","Toronto, ","ON, ",M5T 1L8
374,Daily Brew Coffee Shop,"596 Bay St, ","Toronto, ","ON, ",M5G 1M5
375,Daily Fresh And Cafe,"111 Gordon Baker Rd, ","North York, ","ON, ",M2H 3R1
376,Daily Perk Coffee Co Ltd,"777 Victoria Park, ","Toronto, ","ON, ",Non
377,Daisy Cafe,"105-7030 Woodbine Ave, ","Markham, ","ON, ",L3R 6G2
378,Dark Horse Espresso Bar,"215 Spadina Ave, ","Toronto, ","ON, ",M5T 2C7
379,Dark Horse Espresso Bar,"125 John St, ","Toronto, ","ON, ",M5V 2E2
380,Das Brezel Haus,"25 Main St N, ","Brampton, ","ON, ",L6X 1M8
381,Database Information,"3088 Don Mills Rd, ","North York, ","ON, ",M2J 3C3
382,Database Information,"1269 Danforth Rd, ","Scarborough, ","ON, ",M1J 1E6
383,Database Information,"3547 St Clair Ave E, ","Scarborough, ","ON, ",M1K 1L6
384,DAVIDsTEA,"10 Dundas St E, ","Toronto, ","ON, ",M5B 2G9
385,DAVIDsTEA,"285 Roncesvalles Ave, ","Toronto, ","ON, ",M6R 2M3
386,Dawes Cafe,"466 Dawes Rd, ","East York, ","ON, ",M4B 2E9
387,Dawes Fish & Chips Plus Coffee,"468 Dawes Rd, ","East York, ","ON, ",M4B 2E9
388,De Floured,"1250 College St, ","Toronto, ","ON, ",M6H 1C2
389,Dean's In Office Beverage Svc,"6 Foxden Rd, ","North York, ","ON, ",M3C 2A9
390,DeCourses Café,"3232 Lake Shore Bl West, ","Toronto, ","ON, ",M8V 1M1
391,deKEFIR,"C15 333 Bay, ","Toronto, ","ON, ",M5H 2R2
392,Delica Kitchen,"913 Queen St E, ","Toronto, ","ON, ",M4T 1Y5
393,Delimark Café,"400-90 Sheppard Ave E, ","North York, ","ON, ",M2N 3A1
394,Delimark Cafes,"250 Ferrand Dr, ","North York, ","ON, ",M3C 3G8
395,Dessert Lady Cafe,"12 Cumberland St, ","Toronto, ","ON, ",M4W 1J5
396,Detour Coffee Roasters,"2-2234 Harold Rd, ","Burlington, ","ON, ",L7P 2J5
397,Diabolos' Coffee Bar,"15 King's College Cir, ","Toronto, ","ON, ",M5S 3H7
398,Dineen Coffee,"140, Yonge St, ","Toronto, ","ON, ",M5C 1X6
399,Dineen Outpost,"1042 Gerrard St E, ","Toronto, ","ON, ",M4M 1Z5
400,Dipped,"160 Baldwin St, ","Toronto, ","ON, ",M5T 3K7
401,Dogs And Coffee,"6 Markham St, ","Toronto, ","ON, ",M6J 2E9
402,Dolce Camerata,"144-6464 Yonge St, ","North York, ","ON, ",M2M 3X4
403,Domi Cafe,"15 Northtown Way, ","Toronto, ","ON, ",M2N 7A2
404,Don Latte Cafe Latino,"1165 St Clair Ave W, ","Toronto, ","ON, ",M6E 1B2
405,Double Ming Chinese Dessert,"4186 Finch Ave E, ","Scarborough, ","ON, ",M1S 4T5
406,Drunkin' Dounuts,"4180 Duke Of York Blvd, ","Mississauga, ","ON, ",L5B 0G5
407,Dufferin Cafe Variety,"21B-3200 Dufferin St, ","North York, ","ON, ",M6A 3B2
408,Dundas & Carlaw,"1173 Dundas St E, ","Toronto, ","ON, ",M4M 1S1
409,Dynasty Bakery And Deli,"440 Rogers Rd, ","York, ","ON, ",M6M 1A5
410,Early Bird Espresso & Brew Bar,"613 Queen St W, ","Toronto, ","ON, ",M5V 2B7
411,Eastside Coffee And Bar,"978 Pape Ave, ","East York, ","ON, ",M4K 3V7
412,Ebar,"500-3401 Dufferin St, ","Toronto, ","ON, ",M6A 2T9
413,Ecakes,"11-1960 Lawrence Ave W, ","Scarborough, ","ON, ",M1R 2Z1
414,Eggette Hut,"3255 Highway 7 E, ","Markham, ","ON, ",L3R 3P9
415,El Almacen,"1078 Queen St W, ","Toronto, ","ON, ",M6J 1H8
416,Elchi Chai Shop,"130 Harbord St, ","Toronto, ","ON, ",M5S 1G8
417,Elite Sports Cafe,"Non, ","Toronto, ","ON, ",M6J 1X7
418,Ella's Uncle,"916 Dundas St W, ","Toronto, ","ON, ",M6J 1W1
419,Ella's Uncle,"899 Bloor St W, ","Toronto, ","ON, ",M6H 1L2
420,Ellipsis 505 Retail Cafe,"505 College St, ","Toronto, ","ON, ",M6G 1A5
421,Empire Espresso,"668 College St, ","Toronto, ","ON, ",M6G 1B8
422,EVA COFFEE SHOP,"1 Eva Rd, ","Etobicoke, ","ON, ",M9C 4Z5
423,Express Country Style,"75 Ashtonbee Road, ","Scarborough, ","ON, ",M1L 4N4
424,Express Country Style,"2275 Lake Shore Blvd. W, ","Toronto, ","ON, ",M8V 1A6
425,Express Country Style,"4100 Dundas Street West, ","Toronto, ","ON, ",M6S 2T7
426,Express Country Style,"436 Kipling Ave, ","Etobicoke, ","ON, ",M8Z 5C9
427,Express Country Style,"625 Runnymede Road, ","Toronto, ","ON, ",M6S 3A3
428,Express Country Style,"2801 Eglinton Avenue West, ","Toronto, ","ON, ",M6M 5B4
429,Express Country Style,"3089 Lakeshore Blvd, ","Toronto, ","ON, ",M8V 3W9
430,Express Country Style,"1138 Bathurst St, ","Toronto, ","ON, ",M3H 5T3
431,Express Country Style,"40 Asquith Avenue, ","Toronto, ","ON, ",M4W 1J6
432,Express Country Style,"1-70 Eglinton Square, ","Toronto, ","ON, ",M1L 2K1
433,Express Country Style,"C011-55 University Avenue, ","Toronto, ","ON, ",M5J 2H7
434,Express Country Style,"176 Front Street East, ","Toronto, ","ON, ",M5A 1E6
435,Express Country Style,"93 Birchmount Rd, ","Scarborough, ","ON, ",M1N 3J7
436,Express Country Style,"3449 Dundas Street W, ","Toronto, ","ON, ",M6S 2S5
437,Express Country Style,"400 Kipling Avenue, ","Etobicoke, ","ON, ",M8V 3L1
438,Express Country Style,"20 Montgomery Road, ","Etobicoke, ","ON, ",M8X 1Z4
439,Express Country Style,"2460 St. Clair Avenue West, ","Toronto, ","ON, ",M6N 1L2
440,Express Country Style,"777 Bay Street, ","Toronto, ","ON, ",M5G 2C8
441,Express Country Style,"2300 Yonge St, ","Toronto, ","ON, ",M4P 1E4
442,Express Country Style,"903K-200 Wellington St, ","Toronto, ","ON, ",M5V 3C7
443,Express Deli Cafe,"101-245 Fairview Mall Dr, ","North York, ","ON, ",M2J 4T1
444,Extra Butter Coffee,"283 Roncesvalles Ave, ","Toronto, ","ON, ",M6R 2M3
445,Fabian Cafe,"876 Markham Rd, ","Scarborough, ","ON, ",M1H 2Y2
446,Faema Caffe,"102-672 Dupont St, ","Toronto, ","ON, ",M6G 1Z6
447,Faema Caffe,"25 The West Mall, ","Toronto, ","ON, ",M9C 1B8
448,Faema Canada,"201-672 Dupont St, ","Toronto, ","ON, ",M6G 1Z6
449,Fair Grounds Organic Café & Roastery,"3785 Lake Shore Blvd W, ","Etobicoke, ","ON, ",M8W 1R1
450,Fairouz Sheesha Cafe,"1385 Danforth Ave, ","Toronto, ","ON, ",M4J 1N2
451,Family Bakery Cafe,"1220 Woodbine Ave Main, ","East York, ","ON, ",M4C 4E3
452,F'Coffee,"641 Queen St E, ","Toronto, ","ON, ",M4M 1G4
453,Features Cafe,"33 Bloor St E, ","Toronto, ","ON, ",M4W 3H1
454,Fenmar Cafe,"120 Fenmar Dr, ","North York, ","ON, ",M9L 1M6
455,Field Trip Cafe,"3 Westmoreland, ","Toronto, ","ON, ",M6H 2Z6
456,Find Me Coffee,"305-250 Consumers Rd, ","Toronto, ","ON, ",M2J 4V6
457,Finjan Coffee Reading,"Non, ","Non, ","ON, ",Non
458,First Cup Coffee Service Corp,"136 Martin Ross Ave, ","North York, ","ON, ",M3J 2L4
459,First Cup Coffee Shop,"28 Pale Moon Cres, ","Scarborough, ","ON, ",M1W 3H5
460,For The Win Cafe,"3216 Yonge St, ","Toronto, ","ON, ",M4N 2L2
461,Forget Me Not Cafe,"883 Wilson Ave, ","North York, ","ON, ",M3K 1E6
462,Fornino Osteria Cafe,"101-8 Scollard St, ","Toronto, ","ON, ",M5R 1M2
463,Fort York Pizzeria,"219 Fort York Blvd, ","Toronto, ","ON, ",M5V 1B1
464,Four Stars Cafe,"1485 Dundas St W, ","Toronto, ","ON, ",M6K 1T6
465,Frank's Bar & Cafe,"994 Queen St W, ","Toronto, ","ON, ",M6J 1H1
466,Frecklebean Cafe,"132 McCaul St, ","Toronto, ","ON, ",M5T 1W2
467,Free Times,"320 College St, ","Toronto, ","ON, ",M5T 1S3
468,Fresh Coffee Network,"2 Matilda St, ","Toronto, ","ON, ",M4M 1L9
469,Fresh Start Coffee Co,"655 Bay St, ","Toronto, ","ON, ",M5G 2K4
470,Friends Cafe,"1 Adelaide St E, ","Toronto, ","ON, ",M5C 2V9
471,From Dusk To Dawn Cafe & Lounge,"1940 Eglinton Ave E, ","Scarborough, ","ON, ",M1L 4R1
472,Fusion Artz Cafe,"1767 Avenue Rd, ","North York, ","ON, ",M5M 3Y8
473,G Bar & Grill,"2725 Jane St, ","North York, ","ON, ",M3L 1S3
474,Gayleys Caf,"1424 Dundas St W, ","Toronto, ","ON, ",M6J 1Y5
475,Gerhard's Cafe,"16-1085 Bellamy Rd N, ","Scarborough, ","ON, ",M1H 3C7
476,GH Cafe & Takeout,"3212 Danforth Ave, ","Scarborough, ","ON, ",M1L 1C1
477,Goat Coffee Co.,"893 Pape Ave, ","East York, ","ON, ",M4K 3V1
478,Golden Café,"35 Golden Ave, ","Toronto, ","ON, ",M6R 2J5
479,Golden Wheat Bakery Cafe,"579 Rogers Rd, ","York, ","ON, ",M6M 1B7
480,Goldstruck Coffee,"1-130 Cumberland St, ","Toronto, ","ON, ",M5R 1A6
481,Good Earth Coffee House,"198 Jarvis St, ","Toronto, ","ON, ",M5B 2B7
482,Gordo Ex Cafe,"1048 Bathurst St, ","Toronto, ","ON, ",M5R 3G7
483,Gourmet Beverage Company - Catered Cafe,"13-127 Manville Rd, ","Scarborough, ","ON, ",M1L 4J7
484,Grand Cafe And Juice Bar,"2034 Lawrence Ave E, ","Scarborough, ","ON, ",M1R 2Z3
485,Grand Piano Pastrie & Cafe,"55 Mill St, ","Toronto, ","ON, ",M5A 3C4
486,Great Canadian Bagel,"333 Bay St, ","Toronto, ","ON, ",M5H 2R2
487,Green Beanery,"1-565 Bloor St W, ","Toronto, ","ON, ",M5S 1Y6
488,Green River Coffee,"Non, ","Non, ","ON, ",Non
489,Grinder,"1021 Gerrard St E, ","Toronto, ","ON, ",M4M 1Z6
490,Ground Roots,"Non, ","Non, ","ON, ",Non
491,Gun Mountain Chateau Cottage,"662 Long Lake Rd, ","Barrys Bay, ","ON, ",K0J 1B0
492,Hailed Coffee,"801 Gerrard St E, ","Toronto, ","ON, ",M4M 1Y5
493,Hale Coffee Company,"1485 Dupont St, ","Toronto, ","ON, ",M6P 3S2
494,Hale Coffee Company,"2-212 Pellatt Ave, ","North York, ","ON, ",M9N 2P6
495,happy pea,"Non, ","Toronto, ","ON, ",Non
496,Happy Station Bubble Tea & Cafe,"1857 Danforth Ave, ","Toronto, ","ON, ",M4C 1J3
497,Hard Rock Cafe,"3500-1 Blue Jays Way, ","Toronto, ","ON, ",M5V 1J3
498,Harper Collins Publisher Ltd,"2 Bloor St E, ","Toronto, ","ON, ",M4W 1A8
499,Hero Certified Burgers,"77 Wellesley St E, ","Toronto, ","ON, ",M4Y 1H7
500,Hero Certified Burgers,"4698 Yonge St, ","North York, ","ON, ",M2N 5M4
501,Hero Certified Burgers,"413 Spadina Ave, ","Toronto, ","ON, ",M5T 2G6
502,Hoang Viet Bakery Coffee,"4730 Jane St, ","North York, ","ON, ",M3N 2L2
503,Hoang Viet Bakery Coffee,"4730 Jane St, ","North York, ","ON, ",M3N 2L2
504,Hoang Viet Billiards,"2137 Jane St, ","North York, ","ON, ",M3M 1A2
505,Holts Café,"50 Bloor St W, ","Toronto, ","ON, ",M4W 3L8
506,Holts Café Bloor,"200-50 Bloor St W, ","Toronto, ","ON, ",M4W 1A1
507,Home Baking,"1242 Bloor St W, ","Toronto, ","ON, ",M6H 1N5
508,Homeward Bound Cafe,"Non, ","Toronto, ","ON, ",M6P 3S6
509,Homeward Bound Cafe Inc.,"Non, ","Toronto, ","ON, ",Non
510,Hot black Coffee,"245 Queen St W, ","Toronto, ","ON, ",M5V 1Z4
511,Hot Pot Cafe,"1336 Danforth Ave, ","Toronto, ","ON, ",M4J 1M9
512,Hot-Box Cafe,"Non, ","Non, ","ON, ",Non
513,HOTHOUSE,"35 Church St, ","Toronto, ","ON, ",M5E 1T3
514,House Cafe Ltd,"9 Glen Watford Dr, ","Scarborough, ","ON, ",M1S 2B7
515,House Coach,"Non, ","Non, ","ON, ",Non
516,Humber College Cafe,"107-100 Humber College Blvd, ","Etobicoke, ","ON, ",M9V 5G4
517,I Deal Coffee,"162 Ossington Ave, ","Toronto, ","ON, ",M6J 2Z7
518,I Deal Coffee,"221 Sorauren Ave, ","Toronto, ","ON, ",M6R 2G1
519,I Deal Coffee,"3336 Yonge St, ","Toronto, ","ON, ",M4N 2M4
520,In The Loop Cafe,"1024 St Clair Ave W, ","Toronto, ","ON, ",M6E 1A4
521,Incontro Café,"2917 Dufferin St, ","North York, ","ON, ",M6B 3S7
522,Indigo Books Music & Cafe,"82 Saint Regis Cres S, ","North York, ","ON, ",M3J 1Y8
523,Inter Access,"950 Dupont St, ","Toronto, ","ON, ",M6H 1Z2
524,Istanbul Cafe And Espresso Bar,"174 Eglinton Ave E, ","Toronto, ","ON, ",M4P 1A6
525,Istar Restaurant,"235 Dixon Rd, ","Etobicoke, ","ON, ",M9P 2M5
526,ITFC,"345 Flint Rd, ","North York, ","ON, ",M3J 2J2
527,It's The Cat's Meow Cafe,"138 Robinson St, ","Markham, ","ON, ",L3P 5H5
528,J & V Siman Enterprises,"111 Judge Rd, ","Etobicoke, ","ON, ",M8Z 5B5
529,J J Bean,"2 St Clair Ave W, ","Toronto, ","ON, ",M4V 1L5
530,Jane Street Cafe & Sports Bar,"1695 Jane St, ","North York, ","ON, ",M9N 2S3
531,Java Joe,"1500 Islington Ave, ","Toronto, ","ON, ",M9A 3L8
532,Java Joe's,"4242 Dundas St W, ","Etobicoke, ","ON, ",M8X 1Y6
533,Java Joe's,"180 Dundas St W, ","Toronto, ","ON, ",M5G 1Z8
534,Java Joes,"25 Sheppard Ave W, ","North York, ","ON, ",M2N 6S6
535,Java Joe's Inc,"310 Front W, ","Toronto, ","ON, ",M5V 3B6
536,Java Shop Coffee,"1704-30 Thunder Grove, ","Scarborough, ","ON, ",M1V 4A3
537,Javamama,"1075 Bathurst Street, ","Toronto, ","ON, ",M5R 3G8
538,Javamama,"1075 Bathurst Street, ","Toronto, ","ON, ",M5R 3G8
539,Jessies Cafe,"1423 Kingston Rd Main, ","Scarborough, ","ON, ",M1N 1R4
540,Jet Fuel Coffee Shop Inc,"519 Parliament St, ","Toronto, ","ON, ",M4X 1P3
541,Jimmy's Coffee,"735 Queen St W, ","Toronto, ","ON, ",M6J 1G1
542,Jimmys Coffee,"166 McCaul St, ","Toronto, ","ON, ",M5T 1W4
543,Jimmy's Coffee,"15 Ossington Ave, ","Toronto, ","ON, ",M6J 2Y8
544,Jimmy's Coffee,"84 Gerrard St W, ","Toronto, ","ON, ",M5G 1J5
545,Jimmy's Coffee Bar,"107 Portland St, ","Toronto, ","ON, ",M5V 2N3
546,Jinks Art Factory,"1664 Queen St W, ","Toronto, ","ON, ",M6R 1B2
547,Jj Bean,"90 Eglinton Ave E, ","Toronto, ","ON, ",M4P 2Y3
548,JJ Bean Coffee Roasters,"197 Bartley Dr, ","North York, ","ON, ",M4A 1E6
549,Jnhcafe,"6 Hartham Pl, ","North York, ","ON, ",M3K 1P3
550,Joe The Dog Coffee,"Non, ","Ottawa, ","ON, ",Non
551,Jude Restaurant & Cafe,"2273 Dundas St W, ","Toronto, ","ON, ",M6R 1X6
552,Juice & Java Catering Inc,"2102 Queen St E, ","Toronto, ","ON, ",M4E 1E2
553,Jules Café Patisserie,"617 Mount Pleasant Rd, ","Toronto, ","ON, ",M4S 2M5
554,Jules Café Patisserie,"2898 Bloor St W, ","Etobicoke, ","ON, ",M8X 1B5
555,Jules Cafe Patisserie,"120 Peter St, ","Toronto, ","ON, ",M5V 2G7
556,Kan Global Ventures,"409 College St, ","Toronto, ","ON, ",M5T 1T1
557,Kenya Brand Coffee Corp,"1260 Martin Grove Rd, ","Etobicoke, ","ON, ",M9W 4X3
558,Kibo Sushi House,"36 Charlotte St, ","Toronto, ","ON, ",M5V 3P7
559,King Cafe,"555 Wilson Ave, ","North York, ","ON, ",M3H 0C5
560,King Deli & Cafe,"5-465 King St E, ","Toronto, ","ON, ",M5A 1L6
561,King's Café,"192, Augusta Ave, ","Toronto, ","ON, ",M5T 2L6
562,Kitimai Tea & Coffee Co,"1110 Finch Avenue West, ","North York, ","ON, ",M3J 2T2
563,Koala Mini Vending Services Inc,"150 Clark Blvd, ","Brampton, ","ON, ",L6T 4Y8
564,Koffea Espresso Bar,"2366 Bloor St W, ","Toronto, ","ON, ",M6S 1P3
565,Konya Cafe,"1276 Danforth Ave, ","Toronto, ","ON, ",M4J 1M6
566,Kos Cafe And Restaurant,"1070 Bathurst St, ","Toronto, ","ON, ",M5R 3G9
567,Krave Coffee,"2-781 St Clair Ave W, ","Toronto, ","ON, ",M6C 1B7
568,Krispy Kreme,"215 Harbord St, ","Toronto, ","ON, ",M5S 1H6
569,Krispy Kreme,"400 Spadina Ave, ","Toronto, ","ON, ",M5T 2G7
570,Krispy Kreme,"164 McCaul St, ","Toronto, ","ON, ",M5T 1W4
571,Kung Fu Tea,"264 Spadina Ave, ","Toronto, ","ON, ",M5T 2E4
572,L & T Bar Caffe,"1068 St Clair Ave W, ","Toronto, ","ON, ",M6E 1A5
573,L&L Cafe,"931 St Clair Ave W, ","Toronto, ","ON, ",M6C 1C7
574,La Barista Cafe,"22 St Clair Ave E, ","Toronto, ","ON, ",M4T 2S3
575,La Belle Cafe,"444 Yonge St, ","Toronto, ","ON, ",M5B 2H4
576,La Prep,"1 Queen St E, ","Toronto, ","ON, ",M5C 2W5
577,La Prep,"79 Wellington St W, ","Toronto, ","ON, ",M5J 1H1
578,La Prep,"E4A-222 Bay St, ","Toronto, ","ON, ",M5K 1E7
579,La Prep,"77 King St W, ","Toronto, ","ON, ",M5K 1A1
580,La Prep,"2 Queen St E, ","Toronto, ","ON, ",M5C 3G7
581,La Prep,"18 York St, ","Toronto, ","ON, ",M5J 2T8
582,La Prep,"5150 Yonge St, ","Toronto, ","ON, ",M2N 6L8
583,La Prep,"1095 Military Trl, ","Non, ","ON, ",Non
584,Layaly El Sharke Cafe Club,"1883 Lawrence Ave E, ","Scarborough, ","ON, ",M1R 2Y3
585,Lazy-Hour-Café,"1775 Danforth Ave, ","Toronto, ","ON, ",M4C 1J1
586,Le Chateau Chicken,"13850 Steeles Ave, ","Georgetown, ","ON, ",L7G 0J1
587,L'Étiquette Beaute Café & Hair Studio,"Non, ","Non, ","ON, ",Non
588,Lettieri Espresso Bar,"2901 Bayview Ave, ","North York, ","ON, ",M2K 1E6
589,Lettieri Espresso Bar And Cafe,"200 Elizabeth St, ","Toronto, ","ON, ",M5G 2C4
590,Levity Bakery & Cafe,"1331 Danforth Ave, ","Toronto, ","ON, ",M4J 1N1
591,Liberty Coffee Shop,"1-80 Western Battery Rd, ","Toronto, ","ON, ",M6K 3S1
592,Liberty Village Resaurant,"65 Jefferson Ave Main, ","Toronto, ","ON, ",M6K 1Y3
593,Lido Caffe,"1659 St Clair Ave W Main, ","Toronto, ","ON, ",M6N 1H9
594,Light Cafe,"23 Baldwin St, ","Toronto, ","ON, ",M5T 1L1
595,Lit Expresso Bar,"221A Roncesvalles Ave, ","Toronto, ","ON, ",M6R 2L6
596,Little Nicky's Coffee,"375 Queen St W, ","Toronto, ","ON, ",M5V 2A5
597,Lone Star Cafe,"930 Dixon Rd, ","Etobicoke, ","ON, ",M9W 1J9
598,Lost City,"Non, ","Toronto, ","ON, ",M4K 1P5
599,Louie - Craft Coffee,"1187 King St W, ","Toronto, ","ON, ",M6K 3C5
600,Loveless Cafe,"1430 Dundas St W, ","Toronto, ","ON, ",M6J 1Y5
601,Lucas Cafe,"101 Duncan Mill Rd, ","North York, ","ON, ",M3B 1Z3
602,Lucy Coffee Shop,"201 Consumers Rd, ","North York, ","ON, ",M2J 4G8
603,Lumar Cafe,"1220 Danforth Ave, ","Toronto, ","ON, ",M4J 1M6
604,Machino Cafe,"121 Sellers Ave, ","Toronto, ","ON, ",M6E 3T7
605,Mad Hus Café,"982 Kingston Rd, ","Toronto, ","ON, ",M4E 1S9
606,Maderas,"456 Ossington Ave, ","Toronto, ","ON, ",M6G 3T2
607,Magpie Roasters,"265 Russell Hill Rd, ","Toronto, ","ON, ",M4V 2T3
608,Majesteas,"950 Queen St E, ","Toronto, ","ON, ",M4M 1J7
609,Major Treat Coffee,"1158 Queen St W, ","Toronto, ","ON, ",M6J 1J5
610,Mako Espresso Bar,"Non, ","Non, ","ON, ",Non
611,Maman Bakery Cafe,"100 King St W, ","Toronto, ","ON, ",M5X 2A1
612,Mangia Cake Cafe,"160 McCaul St, ","Toronto, ","ON, ",M5T 1W4
613,Maple Café,"5 Linnsmore Cres, ","Toronto, ","ON, ",M4J 4J5
614,Marilyn Monroe Cafe,"130 King St, ","York, ","ON, ",M9N 1L5
615,Marjane Café,"170 Bedford Rd, ","Toronto, ","ON, ",M5R 2K9
616,Mark Kuzior,"200 Bay, ","Toronto, ","ON, ",M5J 2J1
617,Marvel Coffee Company,"792 Carlaw Ave, ","Toronto, ","ON, ",M4K 3L2
618,Marvel Coffee Company,"990 Danforth Ave, ","Toronto, ","ON, ",M4J 1L9
619,Mastro Cafe,"349 Oakwood Ave, ","York, ","ON, ",M6E 2W1
620,Masuder Lascar,"248 The Esplanade, ","Toronto, ","ON, ",M5A 4J6
621,Mediterranean Food Store,"3 Bartlett Ave, ","Toronto, ","ON, ",M6H 3E8
622,Meet You,"5437 Yonge St, ","North York, ","ON, ",M2N 5S1
623,Mejoo Dessert,"1-682 Bloor St W Main, ","Toronto, ","ON, ",M6G 1L2
624,Mena Cafe & Restaurant,"2011 Lawrence W, ","York, ","ON, ",M9N 3V3
625,Mercury Espresso Bar,"915 Queen St E, ","Toronto, ","ON, ",M4M 1J4
626,Meta :: Toronto Coffee Shops,"123 Yonge St, ","Toronto, ","ON, ",M5C 1W4
627,Metropolis Cafe,"2 Bloor W, ","Toronto, ","ON, ",M4W 3E2
628,Michael M's Music Cafe,"710 Gerrard St E, ","Toronto, ","ON, ",M4M 1Y3
629,Michelle's Sunrise Cafe,"175 Hillmount Rd, ","Markham, ","ON, ",L6C 1Z7
630,Midway Coffee Shop,"2340 Dundas St W, ","Toronto, ","ON, ",M6P 4A9
631,Milky's,"760 Dundas St W, ","Toronto, ","ON, ",M6J 1T8
632,Mineral,"1027 Yonge St, ","Toronto, ","ON, ",M4W 2K9
633,Mini Bar,"116 Spadina Ave, ","Toronto, ","ON, ",M5V 2K6
634,Mirage Cafe,"Non, ","Non, ","ON, ",Z4Z 4Z4
635,Mirage Cafe,"Non, ","Non, ","ON, ",Non
636,Mirage Cafe,"Non, ","Non, ","ON, ",Z4Z 4Z4
637,Mirage Cafe,"Non, ","Non, ","ON, ",M4K 1N2
638,Mister Coffee And Services Inc,"2045 Midland Ave, ","Scarborough, ","ON, ",M1P 3E2
639,MMMarvellous MMMuffins,"4950 Yonge St, ","North York, ","ON, ",M2N 6K1
640,MMMarvellous MMMuffins,"61 St Clair Ave W, ","Toronto, ","ON, ",M4V 2Y8
641,Mocha Mocha,"489 Danforth Ave, ","Toronto, ","ON, ",M4K 1P5
642,Mofer Coffee,"1040 St Clair Ave W, ","Toronto, ","ON, ",M6E 1A5
643,Mom's Gourmet Coffee N Things,"1096 Danforth Ave, ","Toronto, ","ON, ",M4J 1M3
644,Moonbean Coffee Company,"30 St Andrew St, ","Scarborough, ","ON, ",M1M 3H2
645,Morakesh Cafe & Tea,"1393B Danforth Ave, ","Toronto, ","ON, ",M4J 1N2
646,Morning Glory Cafe,"457 King St E, ","Toronto, ","ON, ",M5A 1L6
647,Mr Beans Coffee Company,"5550 Lawrence Ave E, ","Scarborough, ","ON, ",M1C 3B2
648,Mr Goodys,"45 Overlea Blvd, ","Toronto, ","ON, ",M4H 1C3
649,Mumma's Coffee Shop,"1400 Squires Beach Rd, ","Pickering, ","ON, ",L1W 4B9
650,Mylk Uncookies,"253 Gerrard St E, ","Toronto, ","ON, ",M5A 2G1
651,Myomedical Md,"145 Front St E, ","Toronto, ","ON, ",M5A 1E3
652,Mystic Muffins,"113 Jarvis St, ","Toronto, ","ON, ",M5C 2H4
653,N9 Café,"23 Spring Garden Ave, ","North York, ","ON, ",M2N 3G1
654,Nanalyn Jerk,"564 Wilson Heights Blvd, ","North York, ","ON, ",M3H 2V8
655,Neo Coffee Bar,"161 Frederick St, ","Toronto, ","ON, ",M5A 4P3
656,Neon Coffee Shop,"706A Danforth Ave, ","Toronto, ","ON, ",M4J 1L1
657,Nespresso,"159 Cumberland St, ","Toronto, ","ON, ",M5R 1A2
658,Nestle Canada Inc,"3401 Dufferin St, ","North York, ","ON, ",M6A 2T9
659,New Terra Cafe,"213 Pape Ave, ","Toronto, ","ON, ",M4M 2W2
660,New York News Cafe,"250 Front St W, ","Toronto, ","ON, ",M5V 3G5
661,Nexus Coffee Company,"19 Brock St W, ","Uxbridge, ","ON, ",L9P 1P5
662,Niche Coffee And Tea Company,"2101-103 The Queensway, ","Toronto, ","ON, ",M6S 5B3
663,Nicola's Cafe,"20N-23N-4300 Steeles Ave E, ","Markham, ","ON, ",L3R 0Y5
664,Nikki's Cafe,"3292 Bayview Ave, ","Toronto, ","ON, ",M2M 4J5
665,Nil's Pocket Bakery,"707 Dundas St W, Market Pl, ","Toronto, ","ON, ",M5T 2W6
666,Ninetails Coffee Bar,"651 Bloor St W, ","Toronto, ","ON, ",M6G 1L1
667,Nomo Creations,"100 Symes Rd, ","York, ","ON, ",M6N 0A8
668,Nordstrom Ebar Artisan Coffee,"260 Yonge Street, ","Toronto, ","ON, ",M5B 2L9
669,Nordstrom Ebar Artisan Coffee,"3401 Dufferin Street, ","Toronto, ","ON, ",M6A 2T9
670,Nossa Casa,"1331 Dundas St W, ","Toronto, ","ON, ",M6J 1X8
671,Nostalgia Coffee Company,"855 O'Connor Dr, ","East York, ","ON, ",M4B 2S7
672,Nutbar,"899 Queen St E, ","Toronto, ","ON, ",M4M 0C8
673,Nutella Café,"60 Carlton St, ","Toronto, ","ON, ",M5B 1J2
674,Oakwood Expresso,"Non, ","Non, ","ON, ",Non
675,Old Blue Cafe Eatery,"73 Queen St E, ","Toronto, ","ON, ",M5C 1R8
676,Omg On The Park,"47 Abell St, ","Toronto, ","ON, ",Non
677,Organic Garden Café,"Non, ","Non, ","ON, ",Non
678,Oscar Coffee & Espresso,"2377 Queen St E, ","Toronto, ","ON, ",M4E 1H2
679,Our Place Cafe,"Non, ","Toronto, ","ON, ",M6G 3V5
680,Outpost Coffee Roasters,"1576 Bloor St W, ","Toronto, ","ON, ",M6P 1A4
681,Outtakes Cafe,"629 Eastern Ave, ","Toronto, ","ON, ",M4M 1E3
682,P & D Webster Enterprises,"3800 Kingston Rd, ","Scarborough, ","ON, ",M1J 3H6
683,Pablo Cheese Tart,"40 King St W, ","Toronto, ","ON, ",M5H 3Y2
684,Pada Cakes,"777 Bay St, ","Toronto, ","ON, ",M5G 2C8
685,Page One Cafe,"106 Mutual St, ","Toronto, ","ON, ",M5B 2R7
686,Paintlounge,"784 College St, ","Toronto, ","ON, ",M6G 1C6
687,Palate Cafe,"250 Merton St, ","Toronto, ","ON, ",M4S 1B1
688,Panera Bread,"1066 Don Mills Road, ","Toronto, ","ON, ",M3C 0H8
689,Panera Bread - Closed,"322 Yonge Street, ","Toronto, ","ON, ",M5B 1R8
690,Panini Cafe,"70 Plunkett Rd, ","North York, ","ON, ",M9L 2J5
691,Papa Café & Pastry,"6111 Yonge St, ","North York, ","ON, ",M2M 3W2
692,Paris Croissant Bakery Cafe,"595 Bay St, ","Toronto, ","ON, ",M5G 2C2
693,Parisco Cafe,"215 Fort York Blvd, ","Toronto, ","ON, ",M5V 4A2
694,Pasta Mia,"91 Front E, ","Toronto, ","ON, ",M5E 1C3
695,Patagonia,"500 King St W, ","Toronto, ","ON, ",M5V 1L7
696,Peppers Cafe,"189 Wallace Ave, ","Toronto, ","ON, ",M6H 1V5
697,Per Tutti Cafe,"1988 Eglinton Ave W, ","York, ","ON, ",M6E 2J9
698,Perfect Blend,"1971 Weston Rd, ","York, ","ON, ",M9N 1W8
699,Peru Condor Import Co. Inc.,"138 Arlington Ave, ","York, ","ON, ",M6C 2Z2
700,Peter's Cafe,"35 Fairview Mall Dr, ","Toronto, ","ON, ",M2J 4S4
701,Petit Nuage,"707 Dundas St w, ","Toronto, ","ON, ",M5T 2W6
702,Petit Paris Cake And Coffee Shop Toronto,"45 Southport St, ","Toronto, ","ON, ",M6S 3N5
703,Phipps Bakery Cafe,"420 Eglinton Ave W, ","Toronto, ","ON, ",M5N 1A2
704,Pho Asia 39,"1391 Weston Rd, ","York, ","ON, ",M6M 4S3
705,Photo Cafe,"240 Scarlett Rd, ","York, ","ON, ",M6N 4X4
706,Phyllo You Bakery,"1919A Yonge St, ","Toronto, ","ON, ",M4S 1Z3
707,Pico Sports Bar & Cafe,"528 Rogers Rd, ","York, ","ON, ",M6M 1B3
708,Pilot Coffee,"100 King St W, ","Toronto, ","ON, ",M5X 1E3
709,Pinar Del Rio Espresso Bar,"505 Highway 7 E, ","Thornhill, ","ON, ",L3T 7T1
710,Pirgos Coffee Shop,"788 St Clair Ave W, ","Toronto, ","ON, ",M6C 1B6
711,Pizza Thick & The Ice Cream Bake Shop,"536 Queen St W, ","Toronto, ","ON, ",M5V 2B5
712,Play Caffe & Bar,"886 The Queensway, ","Etobicoke, ","ON, ",M8Z 1P1
713,Play Creative Café,"1517 Bayview Ave, ","East York, ","ON, ",M4G 3B5
714,Plentea,"1205 Queen St W, ","Toronto, ","ON, ",M6K 0B9
715,Poetry Jazz Cafe,"224 Augusta Ave, ","Toronto, ","ON, ",M5T 2L6
716,Poets And Pirates Cafe,"9-2007 Lawrence Ave W, ","York, ","ON, ",M9N 3V1
717,Pop Up House,"2109-8339 Kennedy Rd, ","Unionville, ","ON, ",L3R 5T5
718,Press Cafe,"85 Bloor St E, ","Toronto, ","ON, ",M4W 3Y1
719,Presse Café,"40 St Clair Ave W, ","Toronto, ","ON, ",M4V 1M2
720,Presse Cafe,"82 Buttonwood Ave, ","York, ","ON, ",M6M 2J5
721,Presse Café,"875 Bay St, ","Toronto, ","ON, ",M5S 3K6
722,Presse Cafe,"3201 Bur Oak Ave, ","Markham, ","ON, ",L6B 0T2
723,Primo Espresso Bar,"640 Wilson Ave, ","North York, ","ON, ",M3K 1E1
724,Pro Stop Sports Bar & Café Inc,"438 Rogers Rd, ","York, ","ON, ",M6M 1A5
725,Pronto Cafe,"790 Bay St, ","Toronto, ","ON, ",M5G 1N8
726,Punch Buggy 5,"600 Wilson Ave, ","North York, ","ON, ",M3K 1C9
727,Purple Penguin Café,"889 Queen St E, ","Toronto, ","ON, ",M4M 1J4
728,Quarry Cafe,"2560 Gerrard St E, ","Scarborough, ","ON, ",M1N 1W8
729,Quattro Amci Cafe,"1982 Danforth Ave, ","Toronto, ","ON, ",M4C 1J6
730,Queen B Pastry,"235 Carlaw Ave, ","Toronto, ","ON, ",M4M 2S1
731,Queen Mother Cafe,"208 Queen St W, ","Toronto, ","ON, ",M5V 1Z2
732,Queen Mother Cafe,"208 Queen St W, ","Toronto, ","ON, ",M5V 1Z2
733,Queen Street General Store & Cafe,"Non, ","Non, ","ON, ",Non
734,Queen's Pasta Cafe,"2263 Bloor St W, ","Toronto, ","ON, ",M6S 1N8
735,Quirks Cafe,"2714 St Clair Ave E, ","East York, ","ON, ",M4B 1M6
736,Quorum Café,"1-111 Wellesley St W, ","Toronto, ","ON, ",M7A 1A2
737,Rachel's Coffee House,"2011 Yonge St, ","Toronto, ","ON, ",M4S 1Z8
738,Radio Station Cafe,"381 Donlands Ave, ","East York, ","ON, ",M4J 3S2
739,Ralphy's Corner Cafe,"3261 Kennedy Rd, ","Scarborough, ","ON, ",M1V 2K1
740,Red Rocket Coffee,"154 Wellesley St E, ","Toronto, ","ON, ",M4Y 1J3
741,Red Rocket Coffee,"1364 Danforth Ave, ","Toronto, ","ON, ",M4J 1M9
742,Red Rocket Coffee,"401 Logan Ave, ","Toronto, ","ON, ",M4M 2P2
743,Red Seal Masonry,"Non, ","Non, ","ON, ",Non
744,Renaissance Cafe,"Non, ","Non, ","ON, ",Non
745,Renaissance Garden Cafe,"2075 Kennedy Rd, ","Scarborough, ","ON, ",M1T 3V3
746,Reunion Coffee,"28 Bathurst St, ","Toronto, ","ON, ",M5V 0R4
747,Reunion Island,"385 Roncesvalles Ave, ","Toronto, ","ON, ",M6R 2N1
748,Rick's Cafe,"281 Augusta Ave, ","Toronto, ","ON, ",M5T 2M1
749,Roast'n Brew Coffee,"140A-350 Albert St, ","Ottawa, ","ON, ",K1R 1A4
750,Robins Foods 2006 Ltd,"1620 Birchmount Rd, ","Scarborough, ","ON, ",M1P 2H6
751,Rooster Coffee House,"568 Jarvis St, ","Toronto, ","ON, ",M4Y 0C1
752,Rooster Coffee House,"479 Broadview Ave, ","Toronto, ","ON, ",M4K 2N4
753,Rooster Coffee House,"479 Broadview Avenue, ","Toronto, ","ON, ",M4K 2N4
754,Rooster Coffee Inc,"568 Jarvis St, ","Toronto, ","ON, ",M4Y 2H9
755,Rosa Branca Cafe,"816 College St, ","Toronto, ","ON, ",M6G 1C8
756,Rose S Vietnamese Sandwich,"601 Gerrard St E, ","Toronto, ","ON, ",M4M 1Y2
757,Rosys Corner Cafe,"150 Ferrand Dr, ","North York, ","ON, ",M3C 3E5
758,Royal Bakery,"1263 Weston Rd, ","York, ","ON, ",M6M 4P9
759,Rustle & Still,"605 Bloor St W, ","Toronto, ","ON, ",M6G 1K6
760,Sab's Cafe,"1928 Danforth Ave, ","Toronto, ","ON, ",M4C 1J4
761,Sage Cafe and Catering,"166 McCaul St, ","Toronto, ","ON, ",M5T 1W4
762,Saint Jimmy's Coffee,"3-8044 Dixie Rd, ","Brampton, ","ON, ",L6T 5G8
763,Saint Jimmy's Coffee,"816 Jane St, ","York, ","ON, ",M6N 4C1
764,Sakawa Coffee,"867 Danforth Ave, ","Toronto, ","ON, ",M4J 1L8
765,Salto Antipasto Lounge,"1138 Davenport Rd, ","Toronto, ","ON, ",M6G 2C6
766,Sam James Coffee Bar,"297 Harbord St, ","Toronto, ","ON, ",M6G 1G7
767,Sarah's Café,"1426 Danforth Ave, ","Toronto, ","ON, ",M4J 1N4
768,Savoury Grounds Coffee Co Ltd,"283 Scarborough Rd, ","Toronto, ","ON, ",M4E 3M9
769,Scrum Delicious,"2408 Danforth Ave, ","Toronto, ","ON, ",M4C 1K9
770,Second Cup,"1595 Bayview Ave, ","Toronto, ","ON, ",M4G 3B5
771,Second Cup,"1881 Yonge St, ","Toronto, ","ON, ",M4S 1Y6
772,Second Cup,"65 Front St E, ","Toronto, ","ON, ",M5E 1B5
773,Second Cup,"109-1560 Yonge St, ","Toronto, ","ON, ",M4T 2S9
774,Second Cup,"60 Bloor St W, ","Toronto, ","ON, ",M4W 3B8
775,Second Cup,"537 Bloor St W, ","Toronto, ","ON, ",M5S 1Y5
776,Second Cup,"170 Bloor St W, ","Toronto, ","ON, ",M5S 1T9
777,Second Cup,"652 Queen St W, ","Toronto, ","ON, ",M6J 1E5
778,Second Cup,"20 Bay St, ","Toronto, ","ON, ",M5J 2N8
779,Second Cup,"1 University Ave, ","Toronto, ","ON, ",M5J 2P1
780,Second Cup,"U1-163 King St E, ","Toronto, ","ON, ",M5A 1J4
781,Second Cup,"900 Dufferin St, ","Toronto, ","ON, ",M6H 4B1
782,Second Cup,"1881 Leslie St, ","Toronto, ","ON, ",M3B 2M3
783,Second Cup,"5-750 Spadina Ave, ","Toronto, ","ON, ",M5S 2J2
784,Second Cup,"4850 Dundas St W, ","Toronto, ","ON, ",M9A 1A8
785,Second Cup,"165 University Ave, ","Toronto, ","ON, ",M5H 3B9
786,Second Cup,"333 Bay St, ","Toronto, ","ON, ",M5H 2R2
787,Second Cup,"4850 Dundas St W, ","Etobicoke, ","ON, ",M9A 1B4
788,Second Cup,"200 Church St, ","Toronto, ","ON, ",M9N 1N9
789,Second Cup,"518 Eglinton Ave W, ","Toronto, ","ON, ",M5N 1A5
790,Second Cup,"730 Yonge St, ","Toronto, ","ON, ",M4Y 2B7
791,Second Cup,"7 Curity Ave, ","Toronto, ","ON, ",M4B 3L8
792,Second Cup,"905 King St W, ","Toronto, ","ON, ",M6K 3G9
793,Second Cup,"642 Mount Pleasant Rd, ","Toronto, ","ON, ",M4S 2N5
794,Second Cup,"3401 Dufferin St, ","Toronto, ","ON, ",M6A 2T9
795,Second Cup,"1595 Bayview Ave, ","East York, ","ON, ",M4G 3B5
796,Second Cup,"340 College St, ","Toronto, ","ON, ",M5T 3A9
797,Second Cup,"315 Front St W, ","Toronto, ","ON, ",M5V 3A4
798,Second Cup,"C214-777 Bay St, ","Toronto, ","ON, ",M5G 2C8
799,Second Cup,"800 Bay St, ","Toronto, ","ON, ",M5S 3A9
800,Second Cup,"1595 Bayview Ave, ","East York, ","ON, ",M4G 3B5
801,Second Cup Coffee Co.,"5095 Yonge Street, ","Toronto, ","ON, ",M2N 6Z4
802,Second Cup Coffee Co.,"311 York Mills Road, ","Toronto, ","ON, ",M2L 2A8
803,Second Cup Coffee Co.,"475 Yonge Street, ","Toronto, ","ON, ",M4Y 1X7
804,Second Cup Coffee Co.,"490 Lawrence Avenue West, ","Toronto, ","ON, ",M6A 1A1
805,Second Cup Coffee Co.,"145 King Street West, ","Toronto, ","ON, ",M5H 1J8
806,Second Cup Coffee Co.,"270 The Kingsway, ","Toronto, ","ON, ",M9A 3A2
807,Second Cup Coffee Co.,"355 Danforth Avenue, ","Toronto, ","ON, ",M4K 1N7
808,Second Cup Coffee Co.,"144 College St, ","Toronto, ","ON, ",M5S 3M2
809,Second Cup Coffee Co.,"4841 Yonge St., ","Toronto, ","ON, ",M2N 5X2
810,Second Cup Coffee Co.,"333 Bay Street, ","Toronto, ","ON, ",M5H 2R2
811,Second Cup Coffee Co.,"214 College St., ","Toronto, ","ON, ",M5T 2Z9
812,Second Cup Coffee Co.,"1881 Yonge Street, ","Toronto, ","ON, ",M4S 1Y6
813,Second Cup Coffee Co.,"340 College Street, ","Toronto, ","ON, ",M5T 3A9
814,Second Cup Coffee Co.,"1050 Islington Ave., ","Toronto, ","ON, ",M8Z 4R6
815,Second Cup Coffee Co.,"255 Front St. W., ","Toronto, ","ON, ",M5V 2W6
816,Second Cup Coffee Co.,"105 St. George Street, ","Toronto, ","ON, ",M5S 3E6
817,Second Cup Coffee Co.,"119 St. George Street, ","Toronto, ","ON, ",M5S 1A5
818,Second Cup Coffee Co.,"2075 Bayview Ave., ","Toronto, ","ON, ",M4N 3M5
819,Second Cup Coffee Co.,"30 Bond Street, ","Toronto, ","ON, ",M5B 1W8
820,Second Cup Coffee Co.,"750 Spadina Avenue, ","Toronto, ","ON, ",M5S 2J2
821,Second Cup Coffee Co.,"399 Bathurst Street, ","Toronto, ","ON, ",M5T 2S8
822,Second Cup Coffee Co.,"2200 Yonge Street, ","Toronto, ","ON, ",M4S 2C6
823,Second Cup Coffee Co.,"324 Bloor Street West, ","Toronto, ","ON, ",M5S 1W5
824,Second Cup Coffee Co.,"66 Harbord Street, ","Toronto, ","ON, ",M5S 1G2
825,Second Cup Coffee Co.,"777 Bay Street, ","Toronto, ","ON, ",M5G 2C8
826,Second Cup Coffee Co.,"65 Front St. East, ","Toronto, ","ON, ",M5E 1B5
827,Second Cup Coffee Co.,"3008A Bloor Street West, ","Toronto, ","ON, ",M8X 1C2
828,Second Cup Coffee Co.,"544 Church Street, ","Toronto, ","ON, ",M4Y 2E1
829,Second Cup Coffee Co.,"60 Weston Road, ","Toronto, ","ON, ",M6N 0A7
830,Second Cup Coffee Co. - Closed,"537 Bloor Street West, ","Toronto, ","ON, ",M5S 1Y5
831,Second Cup Coffee Co. - Closed,"77 Wellesley Street West, ","Toronto, ","ON, ",M7A 1N3
832,Second Cup Coffee Co. - CLOSED,"730 Yonge Street, ","Toronto, ","ON, ",M4Y 2B7
833,Second Cup Coffee Co. - CLOSED,"2545 Weston Rd., ","Toronto, ","ON, ",M9N 2A7
834,Second Cup Coffee Co. featuring Pinkberry Frozen Yogurt,"693 Wilson Avenue, ","North York, ","ON, ",M3K 1E3
835,Second Cup Coffee Co. featuring Pinkberry Frozen Yogurt,"179 College Street, ","Toronto, ","ON, ",M5T 1P7
836,Second Cup Coffee Co. featuring Pinkberry Frozen Yogurt,"25 King Street West, ","Toronto, ","ON, ",M5L 1E7
837,Second Cup Coffee Co. featuring Pinkberry Frozen Yogurt,"40 King Street West, ","Toronto, ","ON, ",M5H 3Y2
838,Second Cup Coffee Co. featuring Pinkberry Frozen Yogurt,"100 St. George Street, ","Toronto, ","ON, ",M5S 2E8
839,Second Cup Coffee Co. featuring Pinkberry Frozen Yogurt,"39 Bay Street, ","Toronto, ","ON, ",M5J 3B2
840,Second Cup Coffee Co. featuring Pinkberry Frozen Yogurt,"415 Spadina Road, ","Toronto, ","ON, ",M5P 2W3
841,Second Cup Coffee Co. featuring Pinkberry Frozen Yogurt,"808 York Mills Road, ","Toronto, ","ON, ",M3B 1X8
842,Second Cup Coffee Co. featuring Pinkberry Frozen Yogurt,"2340 Bloor Street West, ","Toronto, ","ON, ",M6S 1P3
843,Second Cup Coffee Co. featuring Pinkberry Frozen Yogurt,"60 Bloor Street West, ","Toronto, ","ON, ",M4W 3B8
844,Second Cup Coffee Co. featuring Pinkberry Frozen Yogurt,"1 Dundas Street West, ","Toronto, ","ON, ",M5G 1Z3
845,Second Cup Coffee Co. featuring Pinkberry Frozen Yogurt,"200 Front Street, ","Toronto, ","ON, ",M5V 3K2
846,Second Cup Coffee Co. featuring Pinkberry Frozen Yogurt,"30 The Queensway, ","Toronto, ","ON, ",M6R 1B5
847,Second Cup Coffee Co. featuring Pinkberry Frozen Yogurt,"600 University Avenue, ","Toronto, ","ON, ",M5G 1X5
848,Second Cup Coffee Co. featuring Pinkberry Frozen Yogurt,"287-289 King Street West, ","Toronto, ","ON, ",M5V 1J5
849,Second Cup Coffee Co. featuring Pinkberry Frozen Yogurt,"700 King Street West - Unit, ","Toronto, ","ON, ",M5V 2Y6
850,Second Cup Coffee Co. featuring Pinkberry Frozen Yogurt,"220 Yonge Street, ","Toronto, ","ON, ",M5B 2H1
851,Second Cup Coffee Co. featuring Pinkberry Frozen Yogurt,"1567 Steeles Avenue East, ","Toronto, ","ON, ",M2M 2Y3
852,Second Cup Coffee Co. featuring Pinkberry Frozen Yogurt,"2592 Yonge Street, ","Toronto, ","ON, ",M4P 2J1
853,Second Cup Coffee Co. featuring Pinkberry Frozen Yogurt,"265 Wincott Drive, ","Toronto, ","ON, ",M9R 2R7
854,Second Cup Coffee Co. featuring Pinkberry Frozen Yogurt,"307 Queen Street West, ","Toronto, ","ON, ",M5V 2A4
855,Second Cup Coffee Co. featuring Pinkberry Frozen Yogurt,"1000 Bay Street, ","Toronto, ","ON, ",M5S 3A5
856,See-Scape,"2840 Dundas St W, ","Toronto, ","ON, ",M6P 1Y7
857,Selena Coffee Ltd,"60 Park Lawn Rd, ","Toronto, ","ON, ",M8Y 3H8
858,Seven West Cafe,"7 Charles St W, ","Toronto, ","ON, ",M4Y 1R4
859,SGC,"1858 Avenue Rd, ","North York, ","ON, ",M5M 3Z5
860,Shamrock Bakery,"7414 Road 506 Rr 1, ","Plevna, ","ON, ",K0H 2M0
861,Shinae Kim,"15 Toronto St, ","Toronto, ","ON, ",M5C 2E3
862,Shipyard Cafe,"Non, ","Non, ","ON, ",Non
863,Shisha&Co,"636 Yonge St, ","Toronto, ","ON, ",M4Y 1Z8
864,Shuen Cup,"48 Donlea Dr, ","East York, ","ON, ",M4G 2M4
865,Si Espresso Bar,"748 Broadview Ave, ","Toronto, ","ON, ",M4K 2P1
866,Sicilian Sidewalk Cafe,"712 College St, ","Toronto, ","ON, ",M6G 1C3
867,Siege Airsoft Inc,"2220 Midland Ave, ","Scarborough, ","ON, ",M1P 3E6
868,Simon's Coffee,"106-474 College St, ","Toronto, ","ON, ",M6G 1A4
869,Simply Coffee,"2524 Keele St, ","North York, ","ON, ",M6L 2N8
870,Simply Great Coffee,"Non, ","Non, ","ON, ",Non
871,Sinopino Chinese Restaurant & Takeout,"790 Kennedy Rd, ","Scarborough, ","ON, ",M1K 2C8
872,Smoke And Coffee,"21 Dundas Sq, ","Toronto, ","ON, ",M5B 1B7
873,Smoke and Coffee,"111-21 Dundas Sq, ","Toronto, ","ON, ",M5B 1B7
874,Snakes & Lattes,"600 Bloor St W, ","Toronto, ","ON, ",M6G 1K4
875,Sodexho Services Canada,"9 King's College Cir, ","Toronto, ","ON, ",M5S 3K3
876,Some Time,"41-43 Baldwin St, ","Toronto, ","ON, ",M5T 1L1
877,Sonic Bar & Café,"60 Cecil St, ","Toronto, ","ON, ",M5T 1N6
878,Sorry Coffee Co.,"102 Bloor St W, ","Toronto, ","ON, ",M5S 1M8
879,Soul Cafe Sheppard,"23 Spring Garden Ave, ","Toronto, ","ON, ",M2N 3G1
880,Spark Fresh bar,"739 Ossington Ave, ","Toronto, ","ON, ",M6G 3T8
881,Spice Lady,"1165 Birchmount Rd, ","Scarborough, ","ON, ",M1P 2B7
882,Sport Bar & Cafe,"605 Rogers Rd, ","York, ","ON, ",M6M 1B9
883,Spot Crepes And Tea,"385 Spadina Ave, ","Toronto, ","ON, ",M5T 2G6
884,Starbucks,"43 Milner Ave,Unit 2, ","Scarborough, ","ON, ",M1S 3P6
885,Starbucks,"1740 42 Ave Rd, ","Toronto, ","ON, ",M5M 3Y6
886,Starbucks,"861 York Mills Rd, ","North York, ","ON, ",M3B 1Y2
887,Starbucks,"152-2901 Bayview Ave, ","Toronto, ","ON, ",M2K 1E9
888,Starbucks,"908 Queen St E, ","Toronto, ","ON, ",M4M 1J5
889,Starbucks,"2940 Bloor St W, ","Etobicoke, ","ON, ",M8X 1B6
890,Starbucks,"250 Queen St W, ","Toronto, ","ON, ",M5V 1Z7
891,Starbucks,"181 Bay St, ","Toronto, ","ON, ",M5J 2T3
892,Starbucks,"450 Yonge St, ","Toronto, ","ON, ",M4Y 1X1
893,Starbucks,"5 Rosehill Ave, ","Toronto, ","ON, ",M5V 1Z7
894,Starbucks,"4 King St W, ","Toronto, ","ON, ",M5H 1B6
895,Starbucks,"23 Leslie St, ","Toronto, ","ON, ",M4M 1B4
896,Starbucks,"3250 Yonge St, ","Toronto, ","ON, ",M4N 2L4
897,Starbucks,"205 College St, ","Toronto, ","ON, ",M5T 1P9
898,Starbucks,"R16-585 University Ave, ","Toronto, ","ON, ",M5G 2N2
899,Starbucks,"2630 Yonge St, ","Toronto, ","ON, ",M4P 2J5
900,Starbucks,"1960 Queen St E, ","Toronto, ","ON, ",M4L 1H8
901,Starbucks,"1545 Bayview Ave, ","Toronto, ","ON, ",M4G 3B5
902,Starbucks,"2210 Bloor St W, ","Toronto, ","ON, ",M6S 1N4
903,Starbucks,"1909 Yonge St, ","Toronto, ","ON, ",M4S 1Z3
904,Starbucks,"YG18-220 Yonge St, ","Toronto, ","ON, ",M5B 2H1
905,Starbucks,"185 King St E, ","Toronto, ","ON, ",M5A 1J4
906,Starbucks,"G5-1 Queen St E, ","Toronto, ","ON, ",M5C 2W5
907,Starbucks,"555 University Ave, ","Toronto, ","ON, ",M5G 1X8
908,Starbucks,"2 St. Clair Ave E, ","Toronto, ","ON, ",M4T 2T5
909,Starbucks,"1088 Yonge St, ","Toronto, ","ON, ",M4W 2L4
910,Starbucks,"620 Jarvis St, ","Toronto, ","ON, ",M4Y 2H9
911,Starbucks,"1842 Queen St E, ","Toronto, ","ON, ",M4L 1H1
912,Starbucks,"941 College St, ","Toronto, ","ON, ",M6H 1A6
913,Starbucks,"394 Bay St, ","Toronto, ","ON, ",M5H 2Y3
914,Starbucks,"7-1005 King St W, ","Toronto, ","ON, ",M6G 1B9
915,Starbucks,"494 Bloor St W, ","Toronto, ","ON, ",M5S 1Y2
916,Starbucks,"732 Queen St W, ","Toronto, ","ON, ",M6J 1E9
917,Starbucks,"3079 Bloor St W, ","Toronto, ","ON, ",M8X 1C7
918,Starbucks,"2575 St Clair Ave W, ","Toronto, ","ON, ",M2K 1E9
919,Starbucks,"1092 Queen St W, ","Toronto, ","ON, ",M6J 1H9
920,Starbucks,"625 King St W, ","Toronto, ","ON, ",M5V 1M5
921,Starbucks,"85 Hanna Rd, ","Toronto, ","ON, ",M6K 3S3
922,Starbucks,"C10-50 Bloor St W, ","Toronto, ","ON, ",M4W 2L8
923,Starbucks,"100-1 Adelaide St E, ","Toronto, ","ON, ",M5C 2V9
924,Starbucks,"65C Wicksteed Ave, ","Toronto, ","ON, ",M4G 4H9
925,Starbucks,"2451 Yonge St, ","Toronto, ","ON, ",M4P 2E7
926,Starbucks,"504-3401 Dufferin St, ","Toronto, ","ON, ",M6A 2T9
927,Starbucks,"1900 Eglinton Ave E, ","Scarborough, ","ON, ",M1L 2L9
928,Starbucks,"626 Sheppard Ave W, ","Toronto, ","ON, ",M3H 2S1
929,Starbucks,"657 Dupont St, ","Toronto, ","ON, ",M6G 1Z4
930,Starbucks,"485 Church St, ","Toronto, ","ON, ",M4Y 2C6
931,Starbucks,"5230 Dundas St W, ","Toronto, ","ON, ",M9B 1A8
932,Starbucks,"3143 Yonge St, ","Toronto, ","ON, ",M4N 2N5
933,Starbucks,"66 Gerrard St E, ","Toronto, ","ON, ",M5B 1G3
934,Starbucks,"25 The West Mall,CRU 3038, ","Etobicoke, ","ON, ",M9C 5H5
935,Starbucks,"1020 Kingston Rd, ","Toronto, ","ON, ",M4E 1T4
936,Starbucks,"1 Avondale Ave, ","Toronto, ","ON, ",M2N 7J1
937,Starbucks,"2201 Dundas St W, ","Toronto, ","ON, ",M6R 1X5
938,Starbucks,"161 Bay St, ","Toronto, ","ON, ",M5J 2T3
939,Starbucks,"2-1015 Sheppard Ave E, ","Toronto, ","ON, ",M2K 1C2
940,Starbucks,"55 Bloor St W, ","Toronto, ","ON, ",M4W 1A5
941,Starbucks,"130 King St W,CS12A, ","Toronto, ","ON, ",M5X 1E1
942,Starbucks,"100-1250 Bay St, ","Toronto, ","ON, ",M5R 2B1
943,Starbucks,"2555 Victoria Park Ave, ","Toronto, ","ON, ",M1T 1A3
944,Starbucks,"255 Morningside Ave, ","Toronto, ","ON, ",M1E 3E6
945,Starbucks,"1-123 Front St W, ","Toronto, ","ON, ",M5J 2M2
946,Starbucks,"888 Danforth Ave, ","Toronto, ","ON, ",M4J 1L9
947,Starbucks,"687 St Clair Ave W, ","Toronto, ","ON, ",M6C 1B2
948,Starbucks,"5-2081 Steeles Ave W, ","Toronto, ","ON, ",M3J 3N3
949,Starbucks,"224 Wellington St W, ","Toronto, ","ON, ",M5V 3T5
950,Starbucks,"208 Queens Quay W, ","Toronto, ","ON, ",M5J 2Y1
951,Starbucks,"4-438 Richmond St W, ","Toronto, ","ON, ",M5V 3S6
952,Starbucks,"1417 Danforth Ave, ","Toronto, ","ON, ",M4J 1N2
953,Starbucks,"111 St Clair Ave W, ","Toronto, ","ON, ",M4V 1N5
954,Starbucks,"2208 Lake Shore Blvd West, ","Etobicoke, ","ON, ",M8V 1A4
955,Starbucks,"2E Spadina Ave, ","Toronto, ","ON, ",M5V 3Y5
956,Starbucks,"347 Yonge St, ","Toronto, ","ON, ",M5B 1S1
957,Starbucks,"4025 Yonge St, ","Toronto, ","ON, ",M2P 2E3
958,Starbucks,"100 Lynn Williams St, ","Toronto, ","ON, ",M6K 3N6
959,Starbucks,"1228 St Clair Ave W, ","Toronto, ","ON, ",M6E 1B7
960,Starbucks,"3199 Lake Shore Blvd W, ","Toronto, ","ON, ",M8V 1K8
961,Starbucks,"200 Wellington St W, ","Toronto, ","ON, ",M5V 3C7
962,Starbucks,"1 Blue Jays Way, ","Toronto, ","ON, ",M5V 1J4
963,Starbucks,"18-600 Fleet St, ","Toronto, ","ON, ",M5V 1B7
964,Starbucks,"1-65 Dusk Dr, ","Brampton, ","ON, ",L6Y 0H7
965,Starbucks,"R1-525 University Ave, ","Toronto, ","ON, ",M5G 2L3
966,Starbucks,"3300 Bloor St W, ","Toronto, ","ON, ",M8X 2X3
967,Starbucks,"200 Front St W, ","Toronto, ","ON, ",M5V 3K2
968,Starbucks,"10 Lower Jarvis St, ","Toronto, ","ON, ",M5E 1Z2
969,Starbucks,"249 Queen's Quay W, ","Toronto, ","ON, ",M5J 2N5
970,Starbucks,"50 Musgrave St, ","Toronto, ","ON, ",M4E 3W2
971,Starbucks,"829 The Queensway, ","Toronto, ","ON, ",M8Z 1N6
972,Starbucks,"A14-3000 Highway 7 E, ","Markham, ","ON, ",L3R 6E1
973,Starbucks,"925 Dixon Rd, ","Toronto, ","ON, ",M9W 1J8
974,Starbucks,"100 King W, ","Toronto, ","ON, ",M5X 1A9
975,Starbucks,"201 Lloyd Manor Rd, ","Toronto, ","ON, ",M9B 6H6
976,Starbucks,"3-686 Bay St, ","Toronto, ","ON, ",M5G 0A4
977,Starbucks,"201-1230 Queen St W, ","Toronto, ","ON, ",M6J 0B4
978,Starbucks,"60-351 King St E, ","Toronto, ","ON, ",M5A 1L1
979,Starbucks,"104-1 Yonge St, ","Toronto, ","ON, ",M5E 1E5
980,Starbucks,"6355 Yonge St, ","Toronto, ","ON, ",M2M 3X8
981,Starbucks,"102.3A-180 Queen St W, ","Toronto, ","ON, ",M5V 3X3
982,Starbucks,"39 Eglinton Ave E, ","Toronto, ","ON, ",M4P 1A2
983,Starbucks,"Non, ","Non, ","ON, ",Non
984,Starbucks,"95 St. Clair Ave W, ","Toronto, ","ON, ",M4V 1N7
985,Starbucks,"10 Dundas St E, ","Toronto, ","ON, ",M5B 1R7
986,Starbucks,"1800 Sheppard Ave E, ","Toronto, ","ON, ",M2J 5A7
987,Starbucks,"2300 Yonge St, ","Toronto, ","ON, ",M4P 1E4
988,Starbucks,"303-65 Dundas St W, ","Toronto, ","ON, ",M5G 2C3
989,Starbucks,"694 Mount Pleasant Rd, ","Toronto, ","ON, ",M4S 2N3
990,Starbucks,"680 College St, ","Toronto, ","ON, ",M6G 1C1
991,Starbucks,"1-2 Ossington Ave, ","Toronto, ","ON, ",M6J 2Y7
992,Starbucks,"878 Eglinton Ave E, ","Toronto, ","ON, ",M4G 2L1
993,Starbucks,"3-150 Bloor St W, ","Toronto, ","ON, ",M5S 2X9
994,Starbucks,"326-1 Yorkdale Rd, ","Toronto, ","ON, ",M6A 3A1
995,Starbucks,"5251 Dundas St W, ","Toronto, ","ON, ",M9B 1B2
996,Starbucks,"A2-6714 Kingston Rd, ","Toronto, ","ON, ",M1B 1G8
997,Starbucks,"200 Bay St, ","Toronto, ","ON, ",M5J 2W4
998,Starbucks,"120 Adelaide St W, ","Toronto, ","ON, ",M5H 1T1
999,Starbucks,"100-95 Wellington St W, ","Toronto, ","ON, ",M5J 2N7
1000,Starbucks,"316 Queen St W, ","Toronto, ","ON, ",M5V 2A2
1001,Starbucks,"3671 Bathurst St, ","North York, ","ON, ",M6A 2E6
1002,Starbucks,"56-300 Borough Dr, ","Toronto, ","ON, ",M1P 4P5
1003,Starbucks,"37 Grosvenor St, ","Toronto, ","ON, ",M4Y 3G5
1004,Starbucks,"504 St Clair Ave W, ","Toronto, ","ON, ",M6C 1A2
1005,Starbucks,"3-170 Rimrock Rd, ","Toronto, ","ON, ",M3J 3A6
1006,Starbucks,"1 Bedford Ave, ","Toronto, ","ON, ",M5R 2J7
1007,Starbucks,"3077 Dundas St W, ","Toronto, ","ON, ",M6P 1Z5
1008,Starbucks,"5140 Yonge St, ","Toronto, ","ON, ",M2N 6L7
1009,Starbucks,"25 York St, ","Toronto, ","ON, ",M5J 2V5
1010,Starbucks,"218 Yonge St,1-158, ","Toronto, ","ON, ",M5B 2H6
1011,Starbucks,"C3-2 Bloor St E, ","Toronto, ","ON, ",M4W 1A8
1012,Starbucks,"5-8 Wellesley Ave, ","Toronto, ","ON, ",M4Y 1G2
1013,Starbucks,"220 Yonge St, ","Toronto, ","ON, ",M5B 2H6
1014,Starbucks,"137-155 Wellington St W, ","Toronto, ","ON, ",M5V 3H1
1015,Starbucks,"604 Danforth Ave, ","Toronto, ","ON, ",M4K 1R1
1016,Starbucks,"370 King St W, ","Toronto, ","ON, ",M5V 1J9
1017,Starbucks,"20 William Kitchen Rd, ","Scarborough, ","ON, ",M1P 5B7
1018,Starbucks,"142 Adelaide St E, ","Toronto, ","ON, ",M5C 1K9
1019,Starbucks,"978 Coxwell Ave, ","Toronto, ","ON, ",M4C 3G5
1020,Starbucks,"142 John St, ","Toronto, ","ON, ",M5V 2E3
1021,Starbucks,"6 Pabst Ln, ","Toronto, ","ON, ",M3C 0H8
1022,Starbucks,"2193C Yonge St, Unit Space C, ","Toronto, ","ON, ",M4S 2V2
1023,Starbucks,"580 Queen St W, ","Toronto, ","ON, ",M5V 2B5
1024,Starbucks,"62 Laird Dr, ","Toronto, ","ON, ",M4G 3V1
1025,Starbucks,"3-55 University Ave, ","Toronto, ","ON, ",M5J 2H7
1026,Starbucks,"150 Dundas St W, ","Toronto, ","ON, ",M5G 1C6
1027,Starbucks,"195-900 Dufferin St, ","Toronto, ","ON, ",M6H 4A9
1028,Starbucks,"661 University Ave, ","Toronto, ","ON, ",M5G 1M1
1029,Starbucks,"A1-251 King St E, ","Toronto, ","ON, ",M5A 1K2
1030,Starbucks,"65 Front St W, ","Toronto, ","ON, ",M5J 1E5
1031,Starbucks,"106 Danforth Ave, ","Toronto, ","ON, ",M4K 1N1
1032,Starbucks,"120 Bremner Blvd, ","Toronto, ","ON, ",M5J 0A8
1033,Starbucks,"150A Park Lawn Rd, ","Etobicoke, ","ON, ",M8Y 3H8
1034,Starbucks,"5150 Yonge St, ","North York, ","ON, ",M2N 6L7
1035,Starbucks,"75 Billy Bishop Way A3, ","Toronto, ","ON, ",M3K 2C8
1036,Starbucks,"110C Bloor St W, ","Toronto, ","ON, ",M5S 2W7
1037,Starbucks,"Non, ","Non, ","Non, ",Non
1038,Starbucks,"2-338 Adelaide W, ","Toronto, ","ON, ",M5V 1P8
1039,Starbucks,"1320 Castlefield Ave,Building D, ","Toronto, ","ON, ",M6B 4B3
1040,Starbucks,"1001-2387 Kingston Rd, ","Toronto, ","ON, ",M1N 1V1
1041,Starbucks,"9350 Yonge Street F016B, ","Toronto, ","ON, ",L4C 5G2
1042,Starbucks,"190 Queen St E, ","Brampton, ","ON, ",L6W 2B3
1043,Starbucks,"209 Victoria St, ","Toronto, ","ON, ",M5B 1T8
1044,Starbucks,"111 Elizabeth St, ","Toronto, ","ON, ",M5G 1P7
1045,Starbucks,"4700 Keele St, ","Toronto, ","ON, ",M3J 1P3
1046,Starbucks,"93 Laird Dr, ","Toronto, ","ON, ",M4G 3T8
1047,Starbucks,"369 Huron St, ","Toronto, ","ON, ",M5S 1A5
1048,Starbucks,"15 York St, ","Toronto, ","ON, ",M5J 0A3
1049,Starbucks,"1200 King St W, ","Toronto, ","ON, ",M6K 1G4
1050,Starbucks,"808 York Mills Rd, ","Toronto, ","ON, ",M3B 1X7
1051,Starbucks,"446 Spadina Rd, ","Toronto, ","ON, ",M5P 3M2
1052,Starbucks,"900 Eglinton Ave W, ","Toronto, ","ON, ",M6C 2B6
1053,Starbucks,"176 Yonge St, ","Toronto, ","ON, ",M5C 2L7
1054,Starbucks,"81 Front St E, ","Toronto, ","ON, ",M5E 1B8
1055,Starbucks,"1 King's College Cir, ","Toronto, ","ON, ",M5S 1A8
1056,Starbucks,"100 Bloor St E, ","Toronto, ","ON, ",M4W 1A8
1057,Starbucks,"102-145 Richmond St W, ","Toronto, ","ON, ",M5H 2L2
1058,Starbucks,"444 Eglinton Ave W, ","Toronto, ","ON, ",M5N 1A5
1059,Starbucks,"1887 Avenue Rd, ","Toronto, ","ON, ",M5M 3Z9
1060,Starbucks,"55 Harbord St, ","Toronto, ","ON, ",M5S 2W6
1061,Starbucks,"40 King St W, ","Toronto, ","ON, ",M5H 3Y2
1062,Starbucks,"161A-25 Peel Centre Dr, ","Brampton, ","ON, ",L6T 3R5
1063,Starbucks,"4242 Dundas St W, ","Toronto, ","ON, ",M8X 1Y6
1064,Starbucks,"109 Princes' Blvd, ","Toronto, ","ON, ",M6K 3C3
1065,Starbucks,"407 Yonge St, ","Toronto, ","ON, ",M5B 1S9
1066,Starbucks,"3050 Yonge St, ","Toronto, ","ON, ",M4N 2K4
1067,Starbucks,"675 Yonge St, ","Toronto, ","ON, ",M4Y 2B2
1068,Starbucks,"66 Wellington St W, ","Toronto, ","ON, ",M5J 2W4
1069,Starbucks,"5-3563 Lake Shore Blvd W, ","Toronto, ","ON, ",M8W 1N6
1070,Starbucks,"1-300 Front W, ","Toronto, ","ON, ",M5V 0E9
1071,Starbucks,"47 Charles St W, ","Toronto, ","ON, ",M4Y 2R4
1072,Starbucks,"2300 Yonge St, S 4 Concourse Level, ","Toronto, ","ON, ",M4P 1E4
1073,Starbucks,"374 Evans Ave, ","Etobicoke, ","ON, ",M8Z 1K6
1074,Starbucks,"1205-5140 Yonge St, ","Toronto, ","ON, ",M2N 6L7
1075,Starbucks,"101-10 Lower Spadina Ave, ","Toronto, ","ON, ",M5V 2Z2
1076,Starbucks,"101-439 University Ave, ","Toronto, ","ON, ",M5G 2H6
1077,Starbucks,"444 Yonge St, ","Toronto, ","ON, ",M5B 2H4
1078,Starbucks,"3401 Dufferin St, ","Toronto, ","ON, ",M6A 2T9
1079,Starbucks,"108-2151 St Clair Ave W, ","Toronto, ","ON, ",M6N 1K5
1080,Starbucks,"25 King St W Unit C250, ","Toronto, ","ON, ",M5L 2A1
1081,Starbucks,"132 Queens Quay E, ","Toronto, ","ON, ",M5A 3Y5
1082,Starbucks,"5-1 Bloor St E, ","Toronto, ","ON, ",M4W 1A9
1083,Starbucks,"4800 Yonge St, ","Toronto, ","ON, ",M2N 6G5
1084,Starbucks,"62-66 Overlea Blvd, ","Toronto, ","ON, ",M4H 1C4
1085,Starbucks,"9222B Keele St, ","Vaughan, ","ON, ",L4K 5A3
1086,Starbucks,"1090 Bloor St W, ","Toronto, ","ON, ",M6H 1M6
1087,Starbucks,"650 Dupont St, Loblaws, ","Toronto, ","ON, ",M6G 4B1
1088,Starbucks,"11 Redway Rd, Loblaws, ","Toronto, ","ON, ",M4H 1P6
1089,Starbucks,"1507 Avenue Rd, ","Toronto, ","ON, ",M5M 3X3
1090,Starbucks,"101-5650 Yonge St, ","Toronto, ","ON, ",M2M 4G3
1091,Starbucks,"17 Leslie St, Loblaws, ","Toronto, ","ON, ",M4M 3H9
1092,Starbucks,"6 Pabst Lane, ","Toronto, ","ON, ",M3C 0H4
1093,Starbucks,"3300 Dufferin St, ","Toronto, ","ON, ",M6A 2T5
1094,Starbucks,"253 Jarvis St Unit A, Retail, ","Toronto, ","ON, ",M5B 2C2
1095,Starbucks,"1090 Bloor St W, ","Toronto, ","ON, ",M6H 1M6
1096,Starbucks Coffee,"6-6855 Airport Rd, ","Mississauga, ","ON, ",L4V 1Y9
1097,Starbucks Coffee,"525 University Ave, ","Toronto, ","ON, ",M5G 2L3
1098,Starbucks Robart's,"130 St. George St, ","Toronto, ","ON, ",M5S 1A5
1099,Stargate Cafe,"1173 Dundas St W, ","Toronto, ","ON, ",M6J 1X3
1100,Starlight Cafe,"1375 Dundas St W, ","Toronto, ","ON, ",M6J 1Y3
1101,Stars Coffee,"8-219 Fort York Blvd, ","Toronto, ","ON, ",M5V 1B1
1102,Station Cold Brew Coffee Co,"300 Campbell Ave, ","Toronto, ","ON, ",M6P 3V6
1103,Steady /Cafe,"1051 Bloor St W, ","Toronto, ","ON, ",M6H 1M4
1104,Stefano's Cafe,"1984 Eglinton Ave W, ","York, ","ON, ",M6E 2J9
1105,Story Planet,"269 Gerrard St E, ","Toronto, ","ON, ",M5A 2G3
1106,Studio Cafe,"21 Avenue Rd, ","Toronto, ","ON, ",Non
1107,Sugar Marmalade,"5322 Yonge St, ","North York, ","ON, ",M2N 5P9
1108,Sul & Bean - Korean Dessert Cafe,"9737 Yonge St, ","Richmond Hill, ","ON, ",L4C 8S7
1109,Sunflower Café,"450 Parliament St, ","Toronto, ","ON, ",M5A 3A2
1110,Sunny Joes,"250 Sorauren Ave, ","Toronto, ","ON, ",M6R 2G2
1111,Sunrise Bagel,"1530 Albion Rd, ","Toronto, ","ON, ",M9V 1B3
1112,Sunso Est West Cafe,"3-700 University Ave, ","Toronto, ","ON, ",M5G 1Z5
1113,Super-Jet International Coffee Shop,"346 Dupont St, ","Toronto, ","ON, ",M5R 1V9
1114,Supercoffee,"1148 Weston Rd, ","York, ","ON, ",M6N 3S4
1115,Sur Cafe,"4949 Bathurst St, ","North York, ","ON, ",M2R 1Y1
1116,Sweat; & Soda,"1091 Queen St E, ","Toronto, ","ON, ",M4M 1K7
1117,Sweet House Coffee,"543 Marlee Ave, ","North York, ","ON, ",M6B 3J3
1118,Sweetway Cafe & Eatery,"170 The Donway W, ","North York, ","ON, ",M3C 2G3
1119,Symposium Cafe Restaurant & Lounge,"5221 Yonge St, ","North York, ","ON, ",M2N 5P8
1120,T & M Sidewalk Cafe,"1344 Danforth Ave, ","Toronto, ","ON, ",M4J 1M9
1121,Tai Pan Cafe,"3668 Weston Rd, ","North York, ","ON, ",M9L 1W2
1122,Tailor Made Café,"104-1867 Yonge St, ","Toronto, ","ON, ",M4S 1Y5
1123,Tall Boys Craft Beer Pub,"838 Bloor St W, ","Toronto, ","ON, ",M6G 1M2
1124,Tamp Coffee Co,"2049 Pine St, ","Burlington, ","ON, ",L7R 1E9
1125,Tangerine North Café,"3389 Steeles Ave E, ","North York, ","ON, ",M2H 3S8
1126,Tango Palace Coffee Co,"1156 Queen St E, ","Toronto, ","ON, ",M4M 1L2
1127,Tarts Treats And Cakes,"570 Wilson Av, ","North York, ","ON, ",M3K 1E3
1128,Tarts Treats And Coffee,"1700 Sheppard Ave E, ","Toronto, ","ON, ",M2J 5G9
1129,Tasso,"540 Parliament St, ","Toronto, ","ON, ",M4X 1P6
1130,Tea Shop 168,"495 Bloor St W, ","Toronto, ","ON, ",M5S 1Y2
1131,Teatree Cafe And Eatery,"867 Danforth Ave, ","Toronto, ","ON, ",M4J 1L8
1132,Temporarily Closed - Second Cup Coffee Co.,"40 Eglinton Avenue East, ","Toronto, ","ON, ",M4P 3A2
1133,Tertulia,"711 Queen St E, ","Toronto, ","ON, ",M4M 1H1
1134,Test Instant Pot 29,"91 Hanson St, ","Toronto, ","ON, ",M4C 5P3
1135,Test Yuan 2,"703-15 Fort York Blvd, ","Toronto, ","ON, ",M5V 3Y4
1136,Thai 5 Cafe,"69-670 Hwy 7 East, ","Richmond Hill, ","ON, ",L4B 3P2
1137,Thai Basil Garden,"1011 Finch Ave W, ","North York, ","ON, ",M3J 2C7
1138,Thank U Coffee,"3 Isabella St, ","Toronto, ","ON, ",M4Y 1M7
1139,The Alternative Café,"439 Richmond St W, ","Toronto, ","ON, ",M5V 1X9
1140,The Bagel Stop,"220 Yonge St, ","Toronto, ","ON, ",M5B 2H1
1141,The Bandit Coffee Group,"1925 Gerrard St E, ","Toronto, ","ON, ",M4L 2C2
1142,The Birchcliff,"1666 Kingston Rd, ","Scarborough, ","ON, ",M1N 1S5
1143,The Break Cafe,"305 Milner Ave, ","Scarborough, ","ON, ",M1B 3V4
1144,The Brick,"1289 Gerrard St E, ","Toronto, ","ON, ",M4L 1Y5
1145,The Brockton Haunt,"1150 College St, ","Toronto, ","ON, ",M6H 1B6
1146,The Brockton Haunt,"1150 College St, ","Toronto, ","ON, ",M6H 1B6
1147,The Christian Cafe Com Inc,"269 Old Orchard Grove, ","Toronto, ","ON, ",M5M 2E6
1148,The Christie,"146 Christie St, ","Toronto, ","ON, ",M6G 3B2
1149,The Chuckling Civet Coffee Company,"929 Ossington Ave, ","Toronto, ","ON, ",M6G 3V4
1150,The Coffee Bar Inc,"346 Front St W, ","Toronto, ","ON, ",M5V 3W7
1151,The Coffee Cup,"181 Baldwin St, ","Toronto, ","ON, ",M5T 1L9
1152,The Coffee Lab,"333 Bloor St W, ","Toronto, ","ON, ",M5S 1W7
1153,The Corner Espresso,"20 Saint Patrick St, ","Toronto, ","ON, ",M5T 2Y4
1154,The Cornerstone,"1519 Gerrard St E, ","Toronto, ","ON, ",M4L 2A4
1155,The Drink,"459 Church St, ","Toronto, ","ON, ",M4Y 2C5
1156,The Espresso Bar,"107-29 Bellair St, ","Toronto, ","ON, ",M5R 2C8
1157,The Gallery Studio Cafe,"2877 Lake Shore Blvd W, ","Etobicoke, ","ON, ",M8V 1J1
1158,The Good Food Co,"12 Upjohn Rd, ","North York, ","ON, ",M3B 2V9
1159,The Good Food Ethos,"96 Langford Ave, ","Toronto, ","ON, ",M4J 3E3
1160,The Gourmet Cup,"3003 Danforth Ave, ","East York, ","ON, ",M4C 1M9
1161,The Green Café,"Non, ","TORONTO, ","ON, ",Non
1162,The Green Grind Cafe,"567 College St, ","Toronto, ","ON, ",M6G 3W9
1163,The Grind Coffee & Wine Bar,"Non, ","Non, ","ON, ",Non
1164,The Hot Oven Bakery Cafe,"2974 Bloor St W, ","Etobicoke, ","ON, ",M8X 1B9
1165,The Hot Oven Bakery Cafe Ltd,"177 Roncesvalles Ave, ","Toronto, ","ON, ",M6R 2L5
1166,The Independent,"96 Spadina Ave, 1st floor, ","Toronto, ","ON, ",M5V 2J6
1167,The Innis Cafe,"2 Sussex Ave, ","Toronto, ","ON, ",M5S 1J5
1168,The Lounge Cafe & Bar,"Non, ","Non, ","ON, ",Non
1169,The Mad Bean,"519 Eglinton Ave W, ","Toronto, ","ON, ",M5N 1B1
1170,The Maker Bean Cafe,"770 Don Mills Rd, ","North York, ","ON, ",M3C 1T3
1171,The Mexican Arabica Bean Company,"25-6 Leonard Cir, ","Toronto, ","ON, ",M4E 2Z7
1172,The Mint Coffee And Tea Co.,"911 Yonge St, ","Toronto, ","ON, ",M4W 2H2
1173,The Music Garden Cafe,"466 Queens Quay W, ","Toronto, ","ON, ",M5V 2Y3
1174,The Neo Café,"627 Queens Quay W, ","Toronto, ","ON, ",M5V 3G3
1175,The One in the Only Coffee House,"972 Danforth Ave, ","Toronto, ","ON, ",M4J 1L9
1176,The Original One Bubble Tea,"707 Dundas St W, ","Toronto, ","ON, ",M5T 2W6
1177,The Prinice Cafe,"205 Dundas St W, ","Toronto, ","ON, ",M5G 1C8
1178,The Roastery Coffee House,"219 Dufferin St, ","Toronto, ","ON, ",M6K 3J1
1179,The Scoop And Bean,"2 Follis Ave, ","Toronto, ","ON, ",M6G 1S3
1180,The Scullery Cafe,"200 Carlton St, ","Toronto, ","ON, ",M5A 2L1
1181,The Scullery Cafe,"200 Carlton St, ","Toronto, ","ON, ",M5A 2L1
1182,The Second Cup,"95 Wellington St W, ","Toronto, ","ON, ",M5J 2N7
1183,The Shmooz Inc,"590 Pape Ave, ","Toronto, ","ON, ",M4K 3R8
1184,The Sovereign,"1359 Davenport Rd, ","Toronto, ","ON, ",M6H 2H5
1185,The Sovereign Coffee Shop,"Non, ","Non, ","ON, ",Non
1186,The Tampered Press,"256 Crawford St, ","Toronto, ","ON, ",M6J 2V8
1187,Thealaskashop,"1064 Yonge St, ","Toronto, ","ON, ",M4W 2L4
1188,Thobors Boulangerie Patisserie Café,"627 Mount Pleasant Rd, ","Toronto, ","ON, ",M4S 2M9
1189,Thor Espresso Bar,"35 Bathurst St, ","Toronto, ","ON, ",M5V 2P2
1190,Ti Carlos,"1384 St Clair Ave W, ","Toronto, ","ON, ",M6E 1C6
1191,Tim Hortons,"3400 Victoria Park Rd, ","North York, ","ON, ",M2H 2N5
1192,Tim Hortons,"800 Lawrence Ave E, ","North York, ","ON, ",M3C 1P4
1193,Tim Hortons,"2 Queen St East, ","Toronto, ","ON, ",M5C 3G7
1194,Tim Hortons,"5383 Yonge St, ","North York, ","ON, ",M2N 5R6
1195,Tim Hortons,"3222 Yonge St, ","Toronto, ","ON, ",M4N 2L2
1196,Tim Hortons,"200 Sherway Dr, ","Etobicoke, ","ON, ",M9C 5N6
1197,Tim Hortons,"280 Scarlett Rd, ","Etobicoke, ","ON, ",M9A 4S4
1198,Tim Hortons,"Food Court - 130 King St West, ","Toronto, ","ON, ",M5X 1A9
1199,Tim Hortons,"241 Church St, ","Toronto, ","ON, ",M5B 1Z4
1200,Tim Hortons,"537 Parliament St, ","Toronto, ","ON, ",M4X 1P3
1201,Tim Hortons,"4820 Sheppard Ave East Unit 27, ","Scarborough, ","ON, ",M1S 4N5
1202,Tim Hortons,"657 University Ave, ","Toronto, ","ON, ",M5G 2C4
1203,Tim Hortons,"735 Warden Avenue, ","Scarborough, ","ON, ",M1L 4A8
1204,Tim Hortons,"5220 Finch Ave East, ","Scarborough, ","ON, ",M1S 4Z6
1205,Tim Hortons,"380 Weston Rd, ","Toronto, ","ON, ",M6N 5H1
1206,Tim Hortons,"5250 Dundas St West, ","Etobicoke, ","ON, ",M9B 1A9
1207,Tim Hortons,"90 Adelaide St W, ","Toronto, ","ON, ",M5H 3V9
1208,Tim Hortons,"720 Warden Ave, ","Scarborough, ","ON, ",M1L 4A1
1209,Tim Hortons,"638 Dixon Rd, ","Etobicoke, ","ON, ",M9W 1J1
1210,Tim Hortons,"860 York Mills, ","North York, ","ON, ",M3B 1Y4
1211,Tim Hortons,"426 Kipling Ave, ","Etobicoke, ","ON, ",M8Z 5C9
1212,Tim Hortons,"3487 Dundas St West, ","Toronto, ","ON, ",M6S 2S5
1213,Tim Hortons,"415 Danforth Rd, ","Scarborough, ","ON, ",M1L 2X8
1214,Tim Hortons,"1 Yorkdale Rd, ","North York, ","ON, ",M6A 3A1
1215,Tim Hortons,"860 York Mills Rd, ","North York, ","ON, ",M3B 1Y4
1216,Tim Hortons,"750 Dundas St West, ","Toronto, ","ON, ",M6J 3S3
1217,Tim Hortons,"171 Bentworth St, ","North York, ","ON, ",M6A 1P7
1218,Tim Hortons,"26 Overlea Blvd, ","East York, ","ON, ",M4H 1A4
1219,Tim Hortons,"25 Woodbine Downs Blvd, ","Etobicoke, ","ON, ",M9W 6N5
1220,Tim Hortons,"731 Eastern Ave, ","Toronto, ","ON, ",M4M 3H6
1221,Tim Hortons,"246 Bloor Street West, ","Toronto, ","ON, ",M5S 1V4
1222,Tim Hortons,"1244 Lawrence Ave E, ","Toronto, ","ON, ",M3A 1C3
1223,Tim Hortons,"171 East Liberty St, ","Toronto, ","ON, ",M6K 3P6
1224,Tim Hortons,"2619 Yonge St, ","Toronto, ","ON, ",M4P 2J1
1225,Tim Hortons,"1034 King St W, ","Toronto, ","ON, ",M6K 3M9
1226,Tim Hortons,"102-150 John St, ","Toronto, ","ON, ",M5V 3E3
1227,Tim Hortons,"2485 Bloor St West, ","Toronto, ","ON, ",M6S 1P7
1228,Tim Hortons,"2 Bruyeres Mews, ","Toronto, ","ON, ",M5V 0G8
1229,Tim Hortons,"1530 Albion Rd., Unit #61, ","Etobicoke, ","ON, ",M9V 1B4
1230,Tim Hortons,"101 Humber College Blvd, ","Toronto, ","ON, ",M9V 1R8
1231,Tim Hortons,"Rogers Omp (no Access To Public), ","Toronto, ","ON, ",M4Y 2Y5
1232,Tim Hortons,"20 Eglinton Ave West, ","Toronto, ","ON, ",M4R 1K8
1233,Tim Hortons,"751 Don Mills Rd, ","Toronto, ","ON, ",M3C 1S3
1234,Tim Hortons,"55 St Clair Ave W, ","Toronto, ","ON, ",M4V 2Y7
1235,Tim Hortons,"100 Wellington St W, ","Toronto, ","ON, ",M5K 1E7
1236,Tim Hortons,"1176 St Clair Ave West, ","Toronto, ","ON, ",M6E 1B4
1237,Tim Hortons,"1108 Pharmacy Ave, ","Scarborough, ","ON, ",M1R 2H3
1238,Tim Hortons,"3080 Yonge Street, ","Toronto, ","ON, ",M4N 3N1
1239,Tim Hortons,"176 Front Street East, ","Toronto, ","ON, ",M5A 1E6
1240,Tim Hortons,"1585 Warden Avenue, ","Scarborough, ","ON, ",M1R 2S9
1241,Tim Hortons,"2700 Dufferin St, ","Toronto, ","ON, ",M6B 4J3
1242,Tim Hortons,"769 Yonge St, ","Toronto, ","ON, ",M4W 2G4
1243,Tim Hortons,"18 King St East, ","Toronto, ","ON, ",M5C 1C4
1244,Tim Hortons,"1896 Eglinton Ave East, ","Scarborough, ","ON, ",M1L 2L9
1245,Tim Hortons,"1728 Bloor St West, ","Toronto, ","ON, ",M6P 1A8
1246,Tim Hortons,"477 Dundas St West, ","Toronto, ","ON, ",M5T 1H1
1247,Tim Hortons,"2867 Ellesmere Rd, ","Scarborough, ","ON, ",M1E 4B9
1248,Tim Hortons,"1244 Lawrence Ave East, ","North York, ","ON, ",M3A 1B9
1249,Tim Hortons,"2183 Queen St E, ","Toronto, ","ON, ",M4E 1E5
1250,Tim Hortons,"3488 Lawrence Ave E, ","Scarborough, ","ON, ",M1H 1A9
1251,Tim Hortons,"45 Overlea Blvd, ","Toronto, ","ON, ",M4H 1C3
1252,Tim Hortons,"800 Bay St, ","Toronto, ","ON, ",M5S 3A9
1253,Tim Hortons,"3089 Lakeshore Blvd, ","Etobicoke, ","ON, ",M8V 1A3
1254,Tim Hortons,"39 Wynford Dr, ","North York, ","ON, ",M3C 3K5
1255,Tim Hortons,"256 Jarvis St, ","Toronto, ","ON, ",M5B 2J4
1256,Tim Hortons,"50 Eglinton Ave, ","Toronto, ","ON, ",M4P 1A6
1257,Tim Hortons,"69 Regent Park Blvd, ","Toronto, ","ON, ",M5A 0K7
1258,Tim Hortons,"175 Roncesvalles Ave, ","Toronto, ","ON, ",M6R 2L3
1259,Tim Hortons,"Non, ","Non, ","ON, ",Non
1260,Tim Hortons,"Non, ","Non, ","ON, ",Non
1261,Tim Hortons,"300 Borough Dr, ","Scarborough, ","ON, ",M1P 4P5
1262,Tim Hortons,"120 Fort York Blvd, ","Toronto, ","ON, ",M5V 0E3
1263,Tim Hortons,"119 Spadina Ave, ","Toronto, ","ON, ",M5V 2L1
1264,Tim Hortons,"360 Bay St, ","Toronto, ","ON, ",M5H 2V6
1265,Tim Hortons,"3316 Lakeshore Rd West, ","Etobicoke, ","ON, ",M9W 1M9
1266,Tim Hortons,"1401 Ellesmere Rd, ","Scarborough, ","ON, ",M1P 4R4
1267,Tim Hortons,"33 Yonge St, ","Toronto, ","ON, ",M5E 1G4
1268,Tim Hortons,"2862 Ellesmere Rd, ","Scarborough, ","ON, ",M1E 4B8
1269,Tim Hortons,"700 Lawrence Ave West Lawrence Square Mall, ","Toronto, ","ON, ",M6A 3B4
1270,Tim Hortons,"1751 Albion Rd, ","Etobicoke, ","ON, ",M9V 1C3
1271,Tim Hortons,"101 College St, ","Toronto, ","ON, ",M5T 1P5
1272,Tim Hortons,"1 Richmond St West, ","Toronto, ","ON, ",M5H 3W4
1273,Tim Hortons,"3465 Kingston Rd, ","Scarborough, ","ON, ",M1M 1R4
1274,Tim Hortons,"2575 Danforth Ave, ","Toronto, ","ON, ",M4C 1L5
1275,Tim Hortons,"200 Wellington St. W. (metro Centre), ","Toronto, ","ON, ",M5V 3C7
1276,Tim Hortons,"2501 Victoria Park Ave, ","Scarborough, ","ON, ",M1T 1A1
1277,Tim Hortons,"1084 Islington Ave, ","Etobicoke, ","ON, ",M8Z 4R9
1278,Tim Hortons,"1900 O'connor Dr, ","North York, ","ON, ",M4A 1X2
1279,Tim Hortons,"55 St Clair Ave W, ","Toronto, ","ON, ",M4V 1N5
1280,Tim Hortons,"323 Richmond Street East, ","Toronto, ","ON, ",M5A 4R3
1281,Tim Hortons,"8129 Sheppard Ave, ","Scarborough, ","ON, ",M1B 6A3
1282,Tim Hortons,"175 Bloor St E, ","Toronto, ","ON, ",M4W 3R8
1283,Tim Hortons,"6001 Yonge St, ","North York, ","ON, ",M2M 3W2
1284,Tim Hortons,"1094 Bloor St West, ","Toronto, ","ON, ",M6H 1M5
1285,Tim Hortons,"2050 Victoria Park Ave, ","North York, ","ON, ",M1R 1V2
1286,Tim Hortons,"3850 Sheppard Ave, ","Scarborough, ","ON, ",M1T 3L4
1287,Tim Hortons,"2013 Lawrence Ave West, ","North York, ","ON, ",M9N 0A3
1288,Tim Hortons,"8200 Dixie Rd, ","Brampton, ","ON, ",L6T 0C1
1289,Tim Hortons,"1 King's College Cir, ","Toronto, ","ON, ",M5S 1A5
1290,Tim Hortons,"40 King St W, ","Toronto, ","ON, ",M5H 3Y2
1291,Tim Hortons,"160 Kendal Ave, ","Toronto, ","ON, ",M5R 1M3
1292,Tim Hortons,"3111 Convair Dr, ","Mississauga, ","ON, ",L5P 1B2
1293,Tim Hortons,"455 Spadina Ave, ","Toronto, ","ON, ",M5S 1A1
1294,Tim Hortons,"26 Dundas St, ","Toronto, ","ON, ",M5B 2L6
1295,Tim Hortons,"2625 G Weston Rd, ","North York, ","ON, ",M9N 3W1
1296,Tim Hortons,"3003 Danforth Ave, ","East York, ","ON, ",M4C 1M9
1297,Tim Hortons,"90 Adelaide St W, ","Toronto, ","ON, ",M5H 3V9
1298,Tim Hortons,"900 Dufferin St., ","Toronto, ","ON, ",M6H 4B1
1299,Tim Hortons,"745 College St, ","Toronto, ","ON, ",M6G 1C5
1300,Tim Hortons,"700 University Ave, ","Toronto, ","ON, ",M5G 1Z5
1301,Tim Hortons,"2571 St Clair Ave West, ","Toronto, ","ON, ",M6N 4Z5
1302,Tim Hortons,"4186 Finch Ave East, ","Scarborough, ","ON, ",M1V 5P6
1303,Tim Hortons,"55 York St, ","Toronto, ","ON, ",M5J 1R7
1304,Tim Hortons,"1060 Finch Ave West, ","North York, ","ON, ",M3J 2E2
1305,Tim Hortons,"1269 College St, ","Toronto, ","ON, ",M6H 1C5
1306,Tim Hortons,"145 King St West, ","Toronto, ","ON, ",M5H 1J8
1307,Tim Hortons,"65 Queen St West, ","Toronto, ","ON, ",M5H 2M5
1308,Tim Hortons,"895 Jane St, ","North York, ","ON, ",M6N 4C4
1309,Tim Hortons,"1033 Queen St West, ","Toronto, ","ON, ",M6J 0A6
1310,Tim Hortons,"150 Wynford Dr, ","Toronto, ","ON, ",M3C 1K6
1311,Tim Hortons,"1896 Eglinton Ave E, ","Scarborough, ","ON, ",M1L 2L9
1312,Tim Hortons,"680 Sheppard Ave West, ","North York, ","ON, ",M3H 2S5
1313,Tim Hortons,"60 Tuxedo Court, ","Scarborough, ","ON, ",M1G 3S3
1314,Tim Hortons,"555 Burnhamthorpe Rd, ","Etobicoke, ","ON, ",M9C 2Y3
1315,Tim Hortons,"1170 Bay St, ","Toronto, ","ON, ",M5S 2B4
1316,Tim Hortons,"570a Kipling Ave, ","Etobicoke, ","ON, ",M8Z 5E9
1317,Tim Hortons,"325 Front St W, ","Toronto, ","ON, ",M5V 2Y1
1318,Tim Hortons,"200 King St E, ","Toronto, ","ON, ",M5W 2A8
1319,Tim Hortons,"2500 Don Mills Rd, ","North York, ","ON, ",M2J 3B3
1320,Tim Hortons,"1840 Bayview Ave, ","North York, ","ON, ",M4G 3C9
1321,Tim Hortons,"843 Don Mills Rd, ","North York, ","ON, ",M3C 1V4
1322,Tim Hortons,"901 Sheppard Ave West, ","North York, ","ON, ",M3H 2T7
1323,Tim Hortons,"1500 Finch Ave, ","North York, ","ON, ",M2J 4Y6
1324,Tim Hortons,"250 The Queensway, ","Etobicoke, ","ON, ",M8Y 1J4
1325,Tim Hortons,"5470 Dundas St West, ","Etobicoke, ","ON, ",M9B 1B6
1326,Tim Hortons,"415 The Westway, ","Etobicoke, ","ON, ",M9R 1H5
1327,Tim Hortons,"250 The East Mall, ","Etobicoke, ","ON, ",M9B 3Y8
1328,Tim Hortons,"678-682 Kennedy Rd, ","Scarborough, ","ON, ",M1K 2B5
1329,Tim Hortons,"2900 Warden Ave, ","Scarborough, ","ON, ",M1W 2S8
1330,Tim Hortons,"555 University Ave, ","Toronto, ","ON, ",M5G 1X8
1331,Tim Hortons,"1149 Morningside Ave, ","Scarborough, ","ON, ",M1B 5J3
1332,Tim Hortons,"4751 Leslie St, ","North York, ","ON, ",M2J 2K8
1333,Tim Hortons,"4986 Yonge St, ","North York, ","ON, ",M2N 7G9
1334,Tim Hortons,"750 Lawrence Avenue West, ","Toronto, ","ON, ",M6A 1B8
1335,Tim Hortons,"603 Davenport Rd, ","Toronto, ","ON, ",M5R 1L1
1336,Tim Hortons,"2611 Lawrence Ave East, ","Scarborough, ","ON, ",M1P 2S2
1337,Tim Hortons,"North York General Hospital - Upstairs, ","North York, ","ON, ",M2K 1E1
1338,Tim Hortons,"399 Bathurst St, ","Toronto, ","ON, ",M5T 2S8
1339,Tim Hortons,"5955 Leslie St, ","North York, ","ON, ",M2H 1J8
1340,Tim Hortons,"1630 Danforth Ave, ","Toronto, ","ON, ",M4C 1H6
1341,Tim Hortons,"607 Eglinton Ave East, ","Toronto, ","ON, ",M4P 1P8
1342,Tim Hortons,"3448 Dundas St W, ","Toronto, ","ON, ",M6S 2S1
1343,Tim Hortons,"1050 Don Mills Rd, ","North York, ","ON, ",M3C 1W6
1344,Tim Hortons,"419 Bloor St East, ","Toronto, ","ON, ",M4W 1H7
1345,Tim Hortons,"1000 Gerrard St. East, ","Toronto, ","ON, ",M4M 3G6
1346,Tim Hortons,"2044 Lawrence Ave East, ","Scarborough, ","ON, ",M1R 2Z3
1347,Tim Hortons,"2625 G Weston Rd, ","North York, ","ON, ",M9N 3W1
1348,Tim Hortons,"2485 Bloor St W, ","Toronto, ","ON, ",M6S 1P7
1349,Tim HortonS,"245 Church St, ","Toronto, ","ON, ",M3H 6A7
1350,Tim Hortons,"350 Victoria St, ","Toronto, ","ON, ",M5B 2K3
1351,Tim Hortons,"561 O' Connor Dr, ","Toronto, ","ON, ",M4C 2Z7
1352,Tim Hortons,"2201 Eglinton Ave E, ","Scarborough, ","ON, ",M1L 4S2
1353,Tim Hortons,"3276 St Clair Ave East, ","Scarborough, ","ON, ",M1L 1W1
1354,Tim Hortons,"3566 St Clair Ave E, ","Scarborough, ","ON, ",M1K 1M2
1355,Tim Hortons,"3090 Bathurst St, ","North York, ","ON, ",M6A 2A1
1356,Tim Hortons,"600-290 Yonge St, ","Toronto, ","ON, ",M5B 1C8
1357,Tim Hortons,"3321 Dufferin St, ","Toronto, ","ON, ",M6A 2T8
1358,Tim Hortons,"150 Kilgour Rd, ","East York, ","ON, ",M4G 1R8
1359,Tim Hortons,"100 St George St, ","Toronto, ","ON, ",M5S 3G4
1360,Tim Hortons,"743 Pape Ave, ","Toronto, ","ON, ",M4K 3T1
1361,Tim Hortons,"2075 Bayview Ave, ","Toronto, ","ON, ",M4N 3M5
1362,Tim Hortons,"340 Front St West, ","Toronto, ","ON, ",M5V 3W7
1363,Tim Hortons,"2708 Keele St, ","North York, ","ON, ",M3M 2G1
1364,Tim Hortons,"250 Bloor St E, ","Toronto, ","ON, ",M4W 1E6
1365,Tim Hortons,"969 Eastern Ave, ","Toronto, ","ON, ",M4L 1A5
1366,Tim Hortons,"4696 Yonge St, ","North York, ","ON, ",M2N 5M2
1367,Tim Hortons,"3514 Weston Rd, ","North York, ","ON, ",M9L 1V6
1368,Tim Hortons,"3981 Jane St, ","North York, ","ON, ",M3N 2K1
1369,Tim Hortons,"2304 Sheppard Ave West, ","North York, ","ON, ",M9M 1M1
1370,Tim Hortons,"3075 Danforth Ave, ","Toronto, ","ON, ",M1L 1A8
1371,Tim Hortons,"793 Wilson Ave, ","North York, ","ON, ",M3K 1E4
1372,Tim Hortons,"150 Dupont St, ","Toronto, ","ON, ",M5R 2E6
1373,Tim Hortons,"581 Parliament St, ","Toronto, ","ON, ",M4X 1P7
1374,Tim Hortons,"56 Wellesley St West, ","Toronto, ","ON, ",M5S 2S3
1375,Tim Hortons,"1480 Kennedy Rd, ","Scarborough, ","ON, ",M1P 2L7
1376,Tim Hortons,"1150 Markham Rd, ","Scarborough, ","ON, ",M1H 2Y6
1377,Tim Hortons,"952 King St West, ","Toronto, ","ON, ",M6K 1E4
1378,Tim Hortons,"4000 Finch Ave East, ","Scarborough, ","ON, ",M1S 3T6
1379,Tim Hortons,"7337 Kingston Rd, ","Scarborough, ","ON, ",M1B 5S3
1380,Tim Hortons,"381 Mount Pleasant Rd, ","Toronto, ","ON, ",M4S 2L5
1381,Tim Hortons,"2245 Yonge St, ","Toronto, ","ON, ",M4S 2B1
1382,Tim Hortons,"575 Bay St, ","Toronto, ","ON, ",M5G 2C5
1383,Tim Hortons,"148 Simcoe St, ","Toronto, ","ON, ",M5H 3G4
1384,Tim Hortons,"610 University Ave, ","Toronto, ","ON, ",M5J 1A7
1385,Tim Hortons,"4000 Jane St, ","North York, ","ON, ",M3N 2K2
1386,Tim Hortons,"461 Sheppard Ave East, ","North York, ","ON, ",M2N 3B3
1387,Tim Hortons,"222 Jarvis St, ","Toronto, ","ON, ",M7A 0B6
1388,Tim Hortons,"481 University Ave, ","Toronto, ","ON, ",M5G 2E9
1389,Tim Hortons,"500 Rexdale Blvd, ","Etobicoke, ","ON, ",M9W 6K5
1390,Tim Hortons,"3270 Eglinton Ave East, ","Scarborough, ","ON, ",M1J 2H6
1391,Tim Hortons,"50 Bloor St West, ","Toronto, ","ON, ",M4W 3L8
1392,Tim Hortons,"111 Carlton St, ","Toronto, ","ON, ",M5B 2G3
1393,Tim Hortons,"6000 Dufferin St North, ","North York, ","ON, ",M3H 5T5
1394,Tim Hortons,"2291 Islington Ave, ","Etobicoke, ","ON, ",M9W 3W6
1395,Tim Hortons,"3071 Bloor St West, ","Etobicoke, ","ON, ",M8X 1C7
1396,Tim Hortons,"2363 Warden Ave, ","Scarborough, ","ON, ",M1T 1V7
1397,Tim Hortons,"4025 Yonge St, ","North York, ","ON, ",M2P 2E3
1398,Tim Hortons,"2029 Jane St, ","North York, ","ON, ",M9N 2V4
1399,Tim Hortons,"477 Dundas St W, ","Toronto, ","ON, ",M5T 1H1
1400,Tim Hortons,"1681 Lakeshore Blvd East, ","Toronto, ","ON, ",M4L 3W6
1401,Tim Hortons,"438 Nugget Ave, ","Scarborough, ","ON, ",M1S 5E1
1402,Tim Hortons,"4228 Midland Ave, ","Scarborough, ","ON, ",M1V 4S7
1403,Tim Hortons,"5641 Steeles Ave East, ","Scarborough, ","ON, ",M1V 5P6
1404,Tim Hortons,"1130 Albion Rd, ","Etobicoke, ","ON, ",M9V 1A6
1405,Tim Hortons,"4479 Kingston Rd, ","Scarborough, ","ON, ",M1E 2N7
1406,Tim Hortons,"200 Bay St, ","Toronto, ","ON, ",M5J 2J1
1407,Tim Hortons,"135 Rexdale Blvd, ","Etobicoke, ","ON, ",M9W 1P7
1408,Tim Hortons,"1500 O'connor Dr, ","East York, ","ON, ",M4B 2T8
1409,Tim Hortons,"1621 Birchmount Rd, ","Scarborough, ","ON, ",M1P 2J3
1410,Tim Hortons,"1 William Kitchen Rd, ","Scarborough, ","ON, ",M1P 5B7
1411,Tim Hortons,"2208 Jane St, ","North York, ","ON, ",M3M 1A4
1412,Tim Hortons,"4901 Steeles Ave W Unit 1, ","North York, ","ON, ",M9L 2W1
1413,Tim Hortons,"2075 Sheppard Ave E, ","Toronto, ","ON, ",M2J 1W6
1414,Tim Hortons,"1280 Finch Ave W, ","North York, ","ON, ",M3J 3K6
1415,Tim Hortons,"4 Lebovic Ave, ","Scarborough, ","ON, ",M1L 2L6
1416,Tim Hortons,"3389 Steeles Ave East, ","North York, ","ON, ",M2H 3S7
1417,Tim Hortons,"1569 The Queensway, ","Etobicoke, ","ON, ",M8Z 1T8
1418,Tim Hortons,"105-18 King St, ","Toronto, ","ON, ",M9N 1K9
1419,Tim Hortons,"4211 Keele St, ","North York, ","ON, ",M3J 1N9
1420,Tim Hortons,"1900 Midland Ave, ","Scarborough, ","ON, ",M1P 3E2
1421,Tim Hortons,"2500 Eglinton Ave East, ","Scarborough, ","ON, ",M1K 2R5
1422,Tim Hortons,"815 Caledonia Rd, ","Toronto, ","ON, ",M6B 3X8
1423,Tim Hortons,"285 Rexdale Blvd., ","Etobicoke, ","ON, ",M9W 1P7
1424,Tim Hortons,"500 Trethewey Dr, ","North York, ","ON, ",M6M 4C2
1425,Tim Hortons,"853 The Queensway, ","Etobicoke, ","ON, ",M8Z 1N6
1426,Tim Hortons,"2355 Keele St, ","North York, ","ON, ",M6M 4A2
1427,Tim Hortons,"1110 Don Mills Rd, ","North York, ","ON, ",M3C 1S7
1428,Tim Hortons,"715 Renforth Ave, ","Etobicoke, ","ON, ",M9C 2N7
1429,Tim Hortons,"825 Coxwell Ave, ","East York, ","ON, ",M4C 3E7
1430,Tim Hortons,"960 Warden Ave, ","Scarborough, ","ON, ",M1L 4C9
1431,Tim Hortons,"105 Moatfield Dr, ","North York, ","ON, ",M3B 0A2
1432,Tim Hortons,"170 University Ave, ","Toronto, ","ON, ",M5H 3B3
1433,Tim Hortons,"218 Yonge St, ","Toronto, ","ON, ",M5B 2H6
1434,Tim Hortons,"77 King Street West, ","Toronto, ","ON, ",M5K 2A1
1435,Tim Hortons,"1235 Wilson Ave, ","North York, ","ON, ",M3M 0B2
1436,Tim Hortons,"14 St Matthews Rd, ","Toronto, ","ON, ",M4M 2B5
1437,Tim Hortons,"663 Yonge St, ","Toronto, ","ON, ",M4Y 1Z9
1438,Tim Hortons,"2825 Markham Rd &amp; Mcnicoll Ave, ","Toronto, ","ON, ",M1B 2W1
1439,Tim Hortons,"3030 Birchmount Rd, ","Scarborough, ","ON, ",M1M 3W3
1440,Tim Hortons,"1309 Lawrence Ave E, ","North York, ","ON, ",M3A 1C6
1441,Tim Hortons,"6464 Yonge St, ","North York, ","ON, ",M2M 3X4
1442,Tim Hortons,"75 Ellesmere Rd, ","Scarborough, ","ON, ",M1R 4B7
1443,Tim Hortons,"60 Bloor St West, ","Toronto, ","ON, ",M4W 3B8
1444,Tim Hortons,"100 King St West, ","Toronto, ","ON, ",M5X 2A1
1445,Tim Hortons,"70 Gerrard St West, ","Toronto, ","ON, ",M5G 1J5
1446,Tim Hortons,"4200 Sheppard Ave East, ","Scarborough, ","ON, ",M1S 1T3
1447,Tim Hortons,"334 Bloor St West, ","Toronto, ","ON, ",M5S 1W9
1448,Tim Hortons,"726 Bloor St West, ","Toronto, ","ON, ",M6G 4A1
1449,Tim Hortons,"5555 Eglinton Ave West, ","Etobicoke, ","ON, ",M9C 5M1
1450,Tim Hortons,"1670 Mccowan Rd, ","Scarborough, ","ON, ",M1S 3L5
1451,Tim Hortons,"438 University Ave, ","Toronto, ","ON, ",M5G 2K8
1452,Tim Hortons,"3157 Dundas St W, ","Toronto, ","ON, ",M6P 2A2
1453,Tim Hortons,"10 Dundas St E Suite 104, ","Toronto, ","ON, ",M5B 2G8
1454,Tim Hortons,"12 Queens Quay West, ","Toronto, ","ON, ",M5J 2V3
1455,Tim Hortons,"555 Yonge St, ","Toronto, ","ON, ",M4Y 3A6
1456,Tim Hortons,"333 Eglinton Ave West, ","Toronto, ","ON, ",M5P 2L3
1457,Tim Hortons,"249 Queens Quay West, ","Toronto, ","ON, ",M5V 1A2
1458,Tim Hortons,"2 Bloor St E, ","Toronto, ","ON, ",M4W 1A8
1459,Tim Hortons,"2002 Queen St East, ","Toronto, ","ON, ",M4L 1J3
1460,Tim Hortons,"589 King St East, ","Toronto, ","ON, ",M5V 1M1
1461,Tim Hortons,"150 John St, ","Toronto, ","ON, ",M5V 3C3
1462,Tim Hortons,"1277 York Mills Rd Unit E5, ","North York, ","ON, ",M3A 1Z4
1463,Tim Hortons,"1089 Kingston Rd, ","Scarborough, ","ON, ",M1N 4E4
1464,Tim Hortons,"6897 Finch Ave. West, ","Etobicoke, ","ON, ",M9W 0A6
1465,Tim Hortons,"3683 Dewolf Way, ","Merritt, ","BC, ",V1K 1R1
1466,Tim Hortons,"Waterpark Place, ","Toronto, ","ON, ",M5J 2V7
1467,Tim Hortons,"659 Queen St W, ","Toronto, ","ON, ",M6G 1L1
1468,Tim Hortons,"218 Yonge St, ","Toronto, ","ON, ",M5B 2H1
1469,Tim Hortons,"261 Yonge St, ","Toronto, ","ON, ",M5B 1N8
1470,Tim Hortons,"3300 Bloor Street West Bloor Islington Place, ","Etobicoke, ","ON, ",M8Z 5B5
1471,Tim Hortons,"152 Park Lawn Rd, ","Etobicoke, ","ON, ",M8Y 3H8
1472,Tim Hortons,"Main Store - 595 Bay Street Atrium On Bay, ","Toronto, ","ON, ",M5G 2C2
1473,Tim Hortons,"1 Eglinton Square, ","Scarborough, ","ON, ",M1L 2K1
1474,Tim Hortons,"2480 Gerrard St East, ","Scarborough, ","ON, ",M1N 4C3
1475,Tim Hortons,"230 Lloyd Manor Rd, ","Etobicoke, ","ON, ",M9B 5K7
1476,Tim Hortons,"1309 Lawrence Ave East, ","North York, ","ON, ",M3A 1C6
1477,Tim Hortons,"2301 Brimley Rd, ","Scarborough, ","ON, ",M1S 5B8
1478,Tim Hortons,"1521 Yonge St, ","Toronto, ","ON, ",M4T 1Z2
1479,Tim Hortons,"1533 Jane St, ","North York, ","ON, ",M6M 5J9
1480,Tim Hortons,"1910 Yonge St, ","Toronto, ","ON, ",M4S 1Z3
1481,Tim Hortons,"733 Kipling Ave, ","Etobicoke, ","ON, ",M8Z 5C9
1482,Tim Hortons,"720 King St West, ","Toronto, ","ON, ",M5V 2T3
1483,Tim Hortons,"829 Lakeshore Blvd East, ","Toronto, ","ON, ",M4M 1B2
1484,Tim Hortons,"1733 Eglinton Ave East, ","Toronto, ","ON, ",M4A 1J8
1485,Tim Hortons,"210 Princes Blvd, ","Toronto, ","ON, ",M6K 3C3
1486,Tim Hortons,"1480 Queen St West, ","Toronto, ","ON, ",M6K 1M4
1487,Tim Hortons,"152 North Queen St, ","Etobicoke, ","ON, ",M9C 1A8
1488,Tim Hortons,"2005 Avenue Rd., ","North York, ","ON, ",M5M 4A5
1489,Tim Hortons,"547 Gerrard St East, ","Toronto, ","ON, ",M4M 1X7
1490,Tim Hortons,"85 Laird Dr, ","East York, ","ON, ",M4G 3T8
1491,Tim Hortons,"5975 Steeles Ave E, ","Scarborough, ","ON, ",M1V 5P6
1492,Tim Hortons,"2150 Bloor St West, ","Toronto, ","ON, ",M6S 1M8
1493,Tim Hortons,"3140 Dufferin St, ","North York, ","ON, ",M6A 2T1
1494,Tim Hortons,"1000 The Queensway, ","Etobicoke, ","ON, ",M8Z 1P7
1495,Tim Hortons,"1195 Danforth Ave, ","Toronto, ","ON, ",M4J 1M7
1496,Tim Hortons,"550 St Clair Ave West, ","Toronto, ","ON, ",M6C 1A5
1497,Tim Hortons,"1865-1871 Ave Rd, ","North York, ","ON, ",M5M 3Z7
1498,Tim Hortons,"2075 Bayview Ave, ","Toronto, ","ON, ",M4N 3M5
1499,Tim Hortons,"1970 St. Clair Ave W, ","Toronto, ","ON, ",M6N 4X9
1500,Tim Hortons,"123 Garratt Blvd, ","North York, ","ON, ",M3K 1Y5
1501,Tim Hortons,"4841 Yonge St, ","North York, ","ON, ",M2N 5X2
1502,Tim Hortons,"181 Bay St, ","Toronto, ","ON, ",M5J 2V1
1503,Tim Hortons,"3090 Kingston Rd, ","Scarborough, ","ON, ",M1M 1P2
1504,Tim Hortons,"3600 Sheppard Ave East, ","Scarborough, ","ON, ",M1T 3K8
1505,Tim Hortons,"C-2600 Birchmount Road, ","Scarborough, ","ON, ",M1T 2M5
1506,Tim Hortons,"150 King Steet West, ","Toronto, ","ON, ",M5J 1J9
1507,Tim Hortons,"1 Yonge St, ","Toronto, ","ON, ",M5E 1E5
1508,Tim Hortons,"1871 Avenue Rd, ","Toronto, ","ON, ",M5M 3Z7
1509,Tim Hortons,"563 Sherbourne Street, ","Toronto, ","ON, ",M4X 1W7
1510,Tim Hortons,"91 Danforth Ave, ","Toronto, ","ON, ",M4K 1N2
1511,Tim Hortons,"65 Front Str W, ","Toronto, ","ON, ",M5J 1E6
1512,Tim Hortons,"3353 Lawrence Ave E, ","Scarborough, ","ON, ",M1H 1A8
1513,Tim Hortons,"590 Keele St, ","Toronto, ","ON, ",M6N 3E7
1514,Tim Hortons,"Fairview Mall, 1800 Sheppard Ave. E, ","North York, ","ON, ",M2J 5A7
1515,Tim Hortons,"637 Kingston Rd, ","Toronto, ","ON, ",M4E 1R3
1516,Tim Hortons,"130 King Street West,, ","Toronto, ","ON, ",M5X 1A9
1517,Tim Hortons,"175 Dundas St. E, ","Toronto, ","ON, ",M5A 1Z4
1518,Tim Hortons,"3748 Bathurst Street, ","North York, ","ON, ",M3H 3M4
1519,Tim Hortons,"310 O'connor Drive, ","East York, ","ON, ",M4J 2T9
1520,Tim Hortons,"82 Adelaide St E, ","Toronto, ","ON, ",M5C 1K9
1521,Tim Hortons,"1167 Queen St W, ","Toronto, ","ON, ",M6J 1J4
1522,Tim Hortons,"627 pharmacy ave, ","Scarborough, ","ON, ",M1L 3H3
1523,Tim Hortons,"1256 Dundas St W, ","Toronto, ","ON, ",M4M 2V8
1524,Tim Hortons,"1251 Bloor St W, ","Toronto, ","ON, ",M6H 1N6
1525,Tim Hortons,"335 Parliament St, ","Toronto, ","ON, ",M5A 2Z3
1526,Tim Hortons,"1801 Eglinton Ave West, ","Toronto, ","ON, ",M6E 2H8
1527,Tim Hortons - Closed,"3401 Dufferin St, ","Toronto, ","ON, ",M6A 2T9
1528,Tim Hortons - Closed,"4400 Dufferin St, ","North York, ","ON, ",M3H 5R9
1529,Tim Hortons - Closed,"939 Eglinton Ave East, ","Toronto, ","ON, ",M4G 4E8
1530,Tim Hortons - Closed,"481 Danforth Ave, ","Toronto, ","ON, ",M4K 1P5
1531,Tim Hortons - Closed,"110 West Toronto St, ","Toronto, ","ON, ",M6N 5B7
1532,Tim Hortons - Closed,"99 Wellesley St West, ","Toronto, ","ON, ",M7A 1W3
1533,Tim Hortons - Closed,"33 University Ave., ","Toronto, ","ON, ",M5J 2S7
1534,Tim Hortons - Closed,"844 Don Mills Rd, ","North York, ","ON, ",M3C 1V7
1535,Tim Hortons - Closed,"1025 The Queensway, ","Etobicoke, ","ON, ",M8Z 6C7
1536,Tim Hortons - Closed,"125 The Queensway, ","Etobicoke, ","ON, ",M8Y 1H8
1537,Tim Hortons - Closed,"50 Gould St, ","Toronto, ","ON, ",M5B 2K3
1538,Tim Hortons - Closed,"3750 Bathurst St, ","North York, ","ON, ",M3H 3M4
1539,Tim Hortons - Closed,"322a King St West, ","Toronto, ","ON, ",M5V 1J2
1540,Tim Hortons - Closed,"8 Kingston Rd Eas, ","Ajax, ","ON, ",L1T 4W4
1541,Tim Hortons - Closed,"100 St George St, ","Toronto, ","ON, ",M5S 3G3
1542,Tim Hortons - Closed,"380 Victoria St, ","Toronto, ","ON, ",M5B 2K3
1543,Tim Hortons - Closed,"2201 Eglinton Ave East, ","Scarborough, ","ON, ",M1L 4S2
1544,Tim Hortons - Closed,"575 Bay St, ","Toronto, ","ON, ",M5G 2C5
1545,Tim Hortons - Closed,"595 Bay St, ","Toronto, ","ON, ",M5G 1M6
1546,Tim Hortons - Closed,"6301 Silver Dart Dr, ","Mississauga, ","ON, ",L5P 1B2
1547,Tim Hortons - Closed,"2075 Bayview Ave, ","Toronto, ","ON, ",M4N 3M5
1548,Tim Hortons - Closed,"243 Church St, ","Toronto, ","ON, ",M3H 6A7
1549,Tim Hortons - Temporarily Closed,"3495 Lawrence Ave East, ","Scarborough, ","ON, ",M1H 1B3
1550,Tim Hortons - Temporarily Closed,"40 Bay Street, ","Toronto, ","ON, ",M5J 2X2
1551,Tim Hortons - Temporarily Closed,"500 Commissioners St, ","Toronto, ","ON, ",M4M 1B4
1552,Tim Hortons - Temporarily Closed,"145 Sir William Hearst Ave., ","North York, ","ON, ",M3M 0B6
1553,Tim Hortons - Temporarily Closed,"1 King's College Circle, ","Toronto, ","ON, ",M5S 1A8
1554,Tim Hortons - Temporarily Closed,"400 East Ave, ","Kitchener, ","ON, ",N2H 1Z6
1555,Tim Hortons - Temporarily Closed,"45 Manitoba Dr, ","Toronto, ","ON, ",M6K 3C3
1556,Tim Hortons - Temporarily Closed,"100 Wellington St West, ","Toronto, ","ON, ",M5K 1A2
1557,Tim Hortons - Temporarily Closed,"120 Adelaide St W Unit Fc-09, ","Toronto, ","ON, ",M5H 1T1
1558,Tim Hortons - Temporarily Closed,"200 Elizabeth St, ","Toronto, ","ON, ",M5G 2C4
1559,Tim Hortons - Temporarily Closed,"250 Bloor St, ","Toronto, ","ON, ",M4W 1E5
1560,Tim Hortons - Temporarily Closed,"Transborder Us Departures, ","Mississauga, ","ON, ",L5P 1B4
1561,Tim Hortons - Temporarily Closed,"100 Wynford Dr (not Available To The Public), ","Toronto, ","ON, ",M3C 4B4
1562,Tim Hortons - Temporarily Closed,"1265 Military Trail, ","Scarborough, ","ON, ",M1C 1A4
1563,Tim Hortons - Temporarily Closed,"4110 Yonge St, ","North York, ","ON, ",M2P 2B7
1564,Tim Hortons - Temporarily Closed,"200 Bloor St East, ","Toronto, ","ON, ",M4W 1E5
1565,Tim Hortons - Temporarily Closed,"2225 Sheppard Ave East, ","North York, ","ON, ",M2J 4W6
1566,Tim Hortons - Temporarily Closed,"180 Wellington St West, ","Toronto, ","ON, ",M5J 1J1
1567,Tim Hortons - Temporarily Closed,"4100 Gordon Baker Rd, ","Scarborough, ","ON, ",M1W 3E8
1568,Tim Hortons - Temporarily Closed,"1 Blue Jays Way,rogers Ctr, ","Toronto, ","ON, ",M5V 1J1
1569,Tim Hortons - Temporarily Closed,"2275 Bayview Ave, ","Toronto, ","ON, ",M4N 3M6
1570,Tim Hortons - Temporarily Closed,"123 Garratt Blvd, ","North York, ","ON, ",M3K 1Y5
1571,Tim Hortons - Temporarily Closed,"200 King St East, ","Toronto, ","ON, ",M5A 3W8
1572,Tim Hortons - Temporarily Closed,"2189 Lakeshore Blvd W, ","Etobicoke, ","ON, ",M8V 1A1
1573,Tim Hortons - Temporarily Closed,"4700 Keele St, ","North York, ","ON, ",M3J 1B3
1574,Tim Hortons - Temporarily Closed,"1890 Jane St, ","Toronto, ","ON, ",M9N 2T5
1575,Tim Hortons - Temporarily Closed,"770 Don Mills Road, ","North York, ","ON, ",M3C 1T3
1576,Tim Hortons - Temporarily Closed,"1725 Eglinton Ave East, ","North York, ","ON, ",M4A 1J6
1577,Tim Hortons - Temporarily Closed,"105 Moatfield Dr, ","North York, ","ON, ",M3B 1L6
1578,Tim Hortons - Temporarily Closed,"915 Bloor St West, ","Oshawa, ","ON, ",L1J 8M6
1579,Tim Hortons - Temporarily Closed,"160 Kendal Ave, ","Toronto, ","ON, ",M5R 1M3
1580,Tim Hortons - Temporarily Closed,"770 Don Mills Rd, ","North York, ","ON, ",M3C 1T3
1581,Tim Hortons - Temporarily Closed,"75 Ashtonbee Rd, ","Toronto, ","ON, ",M1L 4N4
1582,Tim Hortons - Temporarily Closed,"2075 Bayview Ave, ","Toronto, ","ON, ",M4N 3M5
1583,Tim Hortons - Temporarily Closed,"51 Dockside Dr, ","Toronto, ","ON, ",M5A 0B6
1584,Tim Hortons - Temporarily Closed,"75 Ashtonbee Rd, ","Scarborough, ","ON, ",M1L 4N4
1585,Tim Hortons - Temporarily Closed,"553 Lakeshore Rd West, ","Toronto, ","ON, ",M5V 1A6
1586,Tim Hortons - Temporarily Closed,"866 Ave Rd, ","Toronto, ","ON, ",M5P 2K3
1587,Time Capsule Cafe,"2183 Danforth Ave, ","Toronto, ","ON, ",M4C 1K4
1588,Timeout Café,"118-220 Yonge St, ","Toronto, ","ON, ",M5B 2H1
1589,Timothy's Coffee,"10 Scrivener Sq, ","Toronto, ","ON, ",M4W 3Y9
1590,Timothys Coffees Of The World,"99-3401 Dufferin St, ","Toronto, ","ON, ",M6A 2T9
1591,Timothy's World Coffee,"425 University Ave, ","Toronto, ","ON, ",M5G 1T6
1592,Timothy's World Coffee,"12 St Clair Ave E, ","Toronto, ","ON, ",M4T 1L7
1593,Timothy's World Coffee,"2901 Bayview Ave, ","North York, ","ON, ",M2K 1E6
1594,Timothy's World Coffee,"483 Bay St, ","Toronto, ","ON, ",M5G 2C9
1595,Timothy's World Coffee,"2190 Bloor St W, ","Toronto, ","ON, ",M6S 1N3
1596,Timothy's World Coffee,"2402 Bloor St W, ","Toronto, ","ON, ",M6S 1P7
1597,Timothy's World Coffee,"150 York St, ","Toronto, ","ON, ",M5H 3S5
1598,Timothy's World Coffee,"200 Wellington St W, ","Toronto, ","ON, ",M5V 3C7
1599,Timothy's World Coffee,"401 Bay St, ","Toronto, ","ON, ",M5H 2Y4
1600,Timothy's World Coffee,"801 Bay St, ","Toronto, ","ON, ",M5S 1Y9
1601,Timothy's World Coffee,"320 Danforth Ave, ","Toronto, ","ON, ",M4K 1N8
1602,Timothy's World Coffee,"30 Adelaide St E, ","Toronto, ","ON, ",M5C 3G8
1603,Timothy's World Coffee,"650 King St W, ","Toronto, ","ON, ",M5V 0H6
1604,Timothy's World Coffee,"100 King St, ","Toronto, ","ON, ",M5X 1A3
1605,Timothy's World Coffee,"105 Front St E, ","Toronto, ","ON, ",M5A 4S5
1606,Timothy's World Coffee,"6464 Yonge St, ","North York, ","ON, ",M2M 3X4
1607,Timothy's World Coffee,"1-90 Eglinton Ave E, ","Toronto, ","ON, ",M4P 2Y3
1608,Timothy's World Coffee,"5650 Yonge St, ","Willowdale, ","ON, ",M2M 4G3
1609,Timothys World Coffee,"483 Bay, ","Non, ","ON, ",Non
1610,Timothy's World Coffee,"116-3300 Bloor St W, ","Etobicoke, ","ON, ",M8X 2W8
1611,Timothy's World Coffee,"100 Consilium Pl, ","Scarborough, ","ON, ",M1H 3E3
1612,Timothys World Coffee,"700 Mount Pleasant Rd, ","Toronto, ","ON, ",M4S 2N7
1613,Tokyo Smoke Bellwoods Coffee,"850B Adelaide Street West, ","Toronto, ","ON, ",M6J 2S1
1614,Tokyo Smoke Coffee,"668 Queen Street West, ","Toronto, ","ON, ",M6J 1E5
1615,Tom Sawyer,"3523 Ellesmere Rd, ","Scarborough, ","ON, ",M1C 1H5
1616,Tommy T's Cafe And Catering,"700-1275 North Service Rd W, ","Oakville, ","ON, ",L6M 3G4
1617,Tommy's Cafe,"2200 Lake Shore Blvd W, ","Etobicoke, ","ON, ",M8V 1A4
1618,TOT The Cat Cafe,"298 College St, ","Toronto, ","ON, ",M5T 1R9
1619,Touch Of Spicer Cafe,"809 Goddard St, ","Toronto, ","ON, ",Non
1620,Tous On Bay Inc,"335 Bay St, ","Toronto, ","ON, ",M5H 2R3
1621,Traineira Cafe,"852 Dundas St W, ","Toronto, ","ON, ",M6J 1V5
1622,Treats,"2200 Yonge St, ","Toronto, ","ON, ",M4S 2C6
1623,Treats,"Parkway Plaza, ","Toronto, ","ON, ",M3C 1N9
1624,Treats,"483 Bay St, ","Toronto, ","ON, ",M5G 2C9
1625,Treats,"C17-20 Bloor St E, ","Toronto, ","ON, ",M4W 1A8
1626,Treats,"30 Isabella St, ","Toronto, ","ON, ",M4Y 1N1
1627,Treats,"142 Kendal Ave, Ground Floor, ","Toronto, ","ON, ",M5R 1M3
1628,Treats,"60 Adelaide St E, ","Toronto, ","ON, ",M5C 3E4
1629,Treats,"B120-121 King St W, ","Toronto, ","ON, ",M5H 3T9
1630,Treats Cafe,"483 Bay St, ","Toronto, ","ON, ",M5G 2C9
1631,Treats International,"483 Bay St, ","Toronto, ","ON, ",M5G 2C9
1632,Tricolore Bar,"1240 St Clair Ave W, ","Toronto, ","ON, ",M6E 1B7
1633,Trini Gardens Restaurant,"948A The Queensway, ","Etobicoke, ","ON, ",M8Z 1P4
1634,Trinity Bellwoods Centre,"151 Crawford St, ","Toronto, ","ON, ",M6P 3V4
1635,Troublemaker,"58 Anewen Dr, ","North York, ","ON, ",M4A 1S3
1636,True Love Cafe,"290 Dundas St E, ","Toronto, ","ON, ",M5A 1Z9
1637,Tt Banh Mi Cafe,"1635 Dundas St W, ","Toronto, ","ON, ",M6K 1V2
1638,Tulsi Enterprise Inc,"515 Drewry Ave, ","North York, ","ON, ",M2R 2K9
1639,Tulsi Enterprises Inc,"2619 Yonge St, ","Toronto, ","ON, ",M4P 2J1
1640,Tunbe Cafe,"1375 Danforth Rd, ","Scarborough, ","ON, ",M1J 1G7
1641,Turkish Coffee Whisperer,"Non, ","Non, ","ON, ",Non
1642,Tyfer Bakery Products,"75 Pelham Ave, ","Toronto, ","ON, ",M6N 1A5
1643,Tyson W Café-Ruoff,"909 Bloor St W, ","Toronto, ","ON, ",M6H 1L2
1644,U N Social Club,"2052 Sheppard Ave E, ","North York, ","ON, ",M2J 5B3
1645,Uptown Cafe Eatery,"1010-5255 Yonge St, ","North York, ","ON, ",M2N 6P4
1646,Urbana Coffee,"920 Yonge St, ","Toronto, ","ON, ",M4W 3C7
1647,Utopia Dream Cafe-Board Game Bubble Tea,"26-7170 Warden Ave, ","Markham, ","ON, ",L3R 8B4
1648,Vari Coffee Deli,"2432 Dufferin St, ","York, ","ON, ",M6E 3T1
1649,Viaguard Inc,"1232 Kingston Rd, ","Scarborough, ","ON, ",M1N 1P3
1650,Village Coffee Shop,"719 Bloor St W, ","Toronto, ","ON, ",M6G 1L5
1651,Village Vinyl Music Emporium & Cafe,"2925 Lake Shore Blvd W, ","Etobicoke, ","ON, ",M8V 1J3
1652,Vintage Coffee Roasters,"977 King St E, ","Hamilton, ","ON, ",L8M 1C3
1653,Vistas Resturants Inc,"261 Yonge St, ","Toronto, ","ON, ",M5B 1N8
1654,Vivid Pizzeria,"1067 St Clair Ave W, ","Toronto, ","ON, ",M6E 1A6
1655,Volta Espresso,"866 Bathurst St, ","Toronto, ","ON, ",M5R 3G3
1656,Voulez Vous Café,"Non, ","Non, ","ON, ",Non
1657,Wallace Espresso,"188 Wallace Ave, ","Toronto, ","ON, ",M6H 1V4
1658,Wallstreet Coffee,"45 Carlton St, ","Toronto, ","ON, ",M5B 2H9
1659,Warm Cup Cafe,"1060 Sheppard Ave W, ","Toronto, ","ON, ",M3J 0G7
1660,Well And Better Coffee,"620 Mount Pleasant Rd, ","Toronto, ","ON, ",M4S 2M8
1661,What A Bagel,"4884 Dufferin St, ","North York, ","ON, ",M3H 5S8
1662,White Squirrel Coffee Shop,"907 Queen St W, ","Toronto, ","ON, ",M6J 1G5
1663,Wild Earth Bake Cafe,"2142A Queen St E, ","Toronto, ","ON, ",M4E 1E3
1664,William Osler Health Centre Etobicoke General Ho spit,"2100 Bovaird Dr E, ","Brampton, ","ON, ",L6R 3J7
1665,Williams Fresh Cafe,"245 Queens Quay W, ","Toronto, ","ON, ",M5J 2K9
1666,Wilson Cafe,"620 Wilson Ave, ","North York, ","ON, ",M3K 1Z3
1667,Yoffe Coffee,"10815 Bathurst St, ","Richmond Hill, ","ON, ",L4C 9Y2
1668,Yogen Früz,"2300 Yonge St, ","Toronto, ","ON, ",M4P 1E4
1669,York Centre Cafe,"2408 Dufferin St, ","York, ","ON, ",M6E 3S8
1670,Yours Truly,"2065 Finch Ave W, ","North York, ","ON, ",M3N 2V7
1671,Yum Cha,"584 Church St, ","Toronto, ","ON, ",M4Y 2E5
1672,Yum Yum Cafe,"234 Jones Ave, ","Toronto, ","ON, ",M4M 3A6
1673,Zav Coffee Shop & Gallery,"2048 Danforth Ave, ","Toronto, ","ON, ",M4C 1J6
1674,Zaza Espresso Bar,"806 Lawrence Ave W, ","North York, ","ON, ",M6A 0B1
1675,Zaza Espresso Bar,"258 Beresford Ave, ","Toronto, ","ON, ",M6S 3B3
1676,Zaza Espresso Bar,"25B Fontenay Crt, ","Etobicoke, ","ON, ",M9A 0C4
1677,Zaza Expresso Bar,"775 St Clair Ave W, ","Toronto, ","ON, ",M6C 1B7
1678,Zazu Expresso Bar,"140 La Rose Ave, ","Etobicoke, ","ON, ",M9P 1B2
1679,Zooli's Inc,"1 Bedford, ","Toronto, ","ON, ",M5R 2B5
